ZipCode,City,County
73071,NORMAN,CLEVELAND
73072,NORMAN,CLEVELAND
73085,YUKON,CANADIAN
73086,SULPHUR,MURRAY
73089,TUTTLE,GRADY
73090,UNION CITY,CANADIAN
73092,VERDEN,GRADY
73098,WYNNEWOOD,GARVIN
73099,YUKON,CANADIAN
73101,OKLAHOMA CITY,OKLAHOMA
73102,OKLAHOMA CITY,OKLAHOMA
73105,OKLAHOMA CITY,OKLAHOMA
73106,OKLAHOMA CITY,OKLAHOMA
73107,OKLAHOMA CITY,OKLAHOMA
73093,WASHINGTON,MCCLAIN
73095,WAYNE,MCCLAIN
73096,WEATHERFORD,CUSTER
73097,WHEATLAND,OKLAHOMA
73103,OKLAHOMA CITY,OKLAHOMA
73104,OKLAHOMA CITY,OKLAHOMA
73108,OKLAHOMA CITY,OKLAHOMA
73109,OKLAHOMA CITY,OKLAHOMA
73112,OKLAHOMA CITY,OKLAHOMA
73113,OKLAHOMA CITY,OKLAHOMA
73116,OKLAHOMA CITY,OKLAHOMA
73117,OKLAHOMA CITY,OKLAHOMA
73118,OKLAHOMA CITY,OKLAHOMA
73119,OKLAHOMA CITY,OKLAHOMA
73121,OKLAHOMA CITY,OKLAHOMA
73122,OKLAHOMA CITY,OKLAHOMA
73001,ALBERT,CADDO
73002,ALEX,GRADY
73003,EDMOND,OKLAHOMA
73004,AMBER,GRADY
73005,ANADARKO,CADDO
73009,BINGER,CADDO
73010,BLANCHARD,MCCLAIN
73011,BRADLEY,GRADY
73012,EDMOND,OKLAHOMA
73006,APACHE,CADDO
73007,ARCADIA,OKLAHOMA
73008,BETHANY,OKLAHOMA
73013,EDMOND,OKLAHOMA
73014,CALUMET,CANADIAN
73015,CARNEGIE,CADDO
73016,CASHION,KINGFISHER
73017,CEMENT,CADDO
73021,COLONY,WASHITA
73022,CONCHO,CANADIAN
73023,CHICKASHA,GRADY
73024,CORN,WASHITA
73025,EDMOND,OKLAHOMA
73018,CHICKASHA,GRADY
73019,NORMAN,CLEVELAND
73020,CHOCTAW,OKLAHOMA
73026,NORMAN,CLEVELAND
73027,COYLE,LOGAN
73028,CRESCENT,LOGAN
73029,CYRIL,CADDO
73036,EL RENO,CANADIAN
73038,FORT COBB,CADDO
73039,DAVIS,MURRAY
73040,GEARY,BLAINE
73041,GOTEBO,KIOWA
73042,GRACEMONT,CADDO
73048,HYDRO,CADDO
73049,JONES,OKLAHOMA
73050,LANGSTON,LOGAN
73051,LEXINGTON,CLEVELAND
73055,MARLOW,STEPHENS
73056,MARSHALL,LOGAN
73057,MAYSVILLE,GARVIN
73064,MUSTANG,CANADIAN
73065,NEWCASTLE,MCCLAIN
73066,NICOMA PARK,OKLAHOMA
73067,NINNEKAH,GRADY
73068,NOBLE,CLEVELAND
73073,ORLANDO,LOGAN
73074,PAOLI,GARVIN
73075,PAULS VALLEY,GARVIN
73077,PERRY,NOBLE
73078,PIEDMONT,CANADIAN
73079,POCASSET,GRADY
73080,PURCELL,MCCLAIN
73082,RUSH SPRINGS,GRADY
73083,EDMOND,OKLAHOMA
73084,SPENCER,OKLAHOMA
73030,DAVIS,MURRAY
73031,DIBBLE,MCCLAIN
73032,DOUGHERTY,MURRAY
73033,EAKLY,CADDO
73034,EDMOND,OKLAHOMA
73043,GREENFIELD,BLAINE
73044,GUTHRIE,LOGAN
73045,HARRAH,OKLAHOMA
73047,HINTON,CADDO
73052,LINDSAY,GARVIN
73053,LOOKEBA,CADDO
73054,LUTHER,OKLAHOMA
73058,MERIDIAN,LOGAN
73059,MINCO,GRADY
73061,MORRISON,NOBLE
73062,MOUNTAIN VIEW,KIOWA
73063,MULHALL,LOGAN
73069,NORMAN,CLEVELAND
73070,NORMAN,CLEVELAND
73124,OKLAHOMA CITY,OKLAHOMA
73125,OKLAHOMA CITY,OKLAHOMA
73126,OKLAHOMA CITY,OKLAHOMA
73110,OKLAHOMA CITY,OKLAHOMA
73111,OKLAHOMA CITY,OKLAHOMA
73114,OKLAHOMA CITY,OKLAHOMA
73115,OKLAHOMA CITY,OKLAHOMA
73120,OKLAHOMA CITY,OKLAHOMA
73123,OKLAHOMA CITY,OKLAHOMA
73127,OKLAHOMA CITY,OKLAHOMA
73128,OKLAHOMA CITY,OKLAHOMA
73131,OKLAHOMA CITY,OKLAHOMA
73132,OKLAHOMA CITY,OKLAHOMA
73136,OKLAHOMA CITY,OKLAHOMA
73137,OKLAHOMA CITY,OKLAHOMA
73141,OKLAHOMA CITY,OKLAHOMA
73142,OKLAHOMA CITY,OKLAHOMA
73143,OKLAHOMA CITY,OKLAHOMA
73129,OKLAHOMA CITY,OKLAHOMA
73130,OKLAHOMA CITY,OKLAHOMA
73134,OKLAHOMA CITY,OKLAHOMA
73135,OKLAHOMA CITY,OKLAHOMA
73139,OKLAHOMA CITY,OKLAHOMA
73140,OKLAHOMA CITY,OKLAHOMA
73144,OKLAHOMA CITY,OKLAHOMA
73145,OKLAHOMA CITY,OKLAHOMA
73147,OKLAHOMA CITY,OKLAHOMA
73148,OKLAHOMA CITY,OKLAHOMA
73149,OKLAHOMA CITY,OKLAHOMA
73152,OKLAHOMA CITY,OKLAHOMA
73153,OKLAHOMA CITY,CLEVELAND
73156,OKLAHOMA CITY,OKLAHOMA
73157,OKLAHOMA CITY,OKLAHOMA
73159,OKLAHOMA CITY,OKLAHOMA
73163,OKLAHOMA CITY,OKLAHOMA
73164,OKLAHOMA CITY,OKLAHOMA
73146,OKLAHOMA CITY,OKLAHOMA
73150,OKLAHOMA CITY,OKLAHOMA
73151,OKLAHOMA CITY,OKLAHOMA
73154,OKLAHOMA CITY,OKLAHOMA
73155,OKLAHOMA CITY,OKLAHOMA
73160,OKLAHOMA CITY,CLEVELAND
73162,OKLAHOMA CITY,OKLAHOMA
73165,OKLAHOMA CITY,CLEVELAND
73167,OKLAHOMA CITY,OKLAHOMA
73172,OKLAHOMA CITY,OKLAHOMA
73173,OKLAHOMA CITY,OKLAHOMA
73184,OKLAHOMA CITY,OKLAHOMA
73185,OKLAHOMA CITY,OKLAHOMA
73194,OKLAHOMA CITY,OKLAHOMA
73195,OKLAHOMA CITY,OKLAHOMA
73169,OKLAHOMA CITY,OKLAHOMA
73170,OKLAHOMA CITY,CLEVELAND
73178,OKLAHOMA CITY,OKLAHOMA
73179,OKLAHOMA CITY,OKLAHOMA
73189,OKLAHOMA CITY,CLEVELAND
73190,OKLAHOMA CITY,OKLAHOMA
73196,OKLAHOMA CITY,OKLAHOMA
73403,ARDMORE,CARTER
73425,COUNTYLINE,STEPHENS
73430,BURNEYVILLE,LOVE
73432,COLEMAN,JOHNSTON
73433,ELMORE CITY,GARVIN
73440,LEBANON,MARSHALL
73441,LEON,LOVE
73442,LOCO,STEPHENS
73443,LONE GROVE,CARTER
73444,HENNEPIN,CARTER
73446,MADILL,MARSHALL
73447,MANNSVILLE,JOHNSTON
73448,MARIETTA,LOVE
73449,MEAD,BRYAN
73450,MILBURN,JOHNSTON
73460,TISHOMINGO,JOHNSTON
73461,WAPANUCKA,JOHNSTON
73463,WILSON,CARTER
73436,GENE AUTRY,CARTER
73437,GRAHAM,CARTER
73438,HEALDTON,CARTER
73439,KINGSTON,MARSHALL
73453,OVERBROOK,LOVE
73455,RAVIA,JOHNSTON
73456,RINGLING,JEFFERSON
73458,SPRINGER,CARTER
73459,THACKERVILLE,LOVE
73488,TUSSY,CARTER
73491,VELMA,STEPHENS
73501,LAWTON,COMANCHE
73502,LAWTON,COMANCHE
73503,FORT SILL,COMANCHE
73521,ALTUS,JACKSON
73522,ALTUS,JACKSON
73523,ALTUS AFB,JACKSON
73526,BLAIR,JACKSON
73532,DUKE,JACKSON
73533,DUNCAN,STEPHENS
73534,DUNCAN,STEPHENS
73536,DUNCAN,STEPHENS
73541,FLETCHER,COMANCHE
73542,FREDERICK,TILLMAN
73543,GERONIMO,COMANCHE
73544,GOULD,HARMON
73546,GRANDFIELD,TILLMAN
73553,LOVELAND,TILLMAN
73554,MANGUM,GREER
73555,MANITOU,TILLMAN
73556,MARTHA,JACKSON
73557,MEDICINE PARK,COMANCHE
73505,LAWTON,COMANCHE
73506,LAWTON,COMANCHE
73507,LAWTON,COMANCHE
73520,ADDINGTON,JEFFERSON
73481,RATLIFF CITY,CARTER
73487,TATUMS,CARTER
73401,ARDMORE,CARTER
73402,ARDMORE,CARTER
73434,FOSTER,STEPHENS
73435,FOX,CARTER
73742,HENNESSEY,KINGFISHER
73743,HILLSDALE,GARFIELD
73744,HITCHCOCK,BLAINE
73746,HOPETON,WOODS
73747,ISABELLA,MAJOR
73757,LUCIEN,NOBLE
73758,MANCHESTER,GRANT
73759,MEDFORD,GRANT
73760,MENO,MAJOR
73761,NASH,GRANT
73762,OKARCHE,KINGFISHER
73763,OKEENE,BLAINE
73764,OMEGA,KINGFISHER
73766,POND CREEK,GRANT
73768,RINGWOOD,MAJOR
73832,ARNETT,ELLIS
73834,BUFFALO,HARPER
73835,CAMARGO,DEWEY
73838,CHESTER,MAJOR
73770,SOUTHARD,BLAINE
73771,WAKITA,GRANT
73772,WATONGA,BLAINE
73773,WAUKOMIS,GARFIELD
73801,WOODWARD,WOODWARD
73802,WOODWARD,WOODWARD
73840,FARGO,ELLIS
73841,FORT SUPPLY,WOODWARD
73842,FREEDOM,WOODS
73843,GAGE,ELLIS
73844,GATE,BEAVER
73857,SHARON,WOODWARD
73858,SHATTUCK,ELLIS
73859,VICI,DEWEY
73860,WAYNOKA,WOODS
73901,ADAMS,TEXAS
73931,BALKO,BEAVER
73942,GUYMON,TEXAS
73944,HARDESTY,TEXAS
73945,HOOKER,TEXAS
73946,KENTON,CIMARRON
73947,KEYES,CIMARRON
74002,BARNSDALL,OSAGE
73527,CACHE,COMANCHE
73528,CHATTANOOGA,COMANCHE
73529,COMANCHE,STEPHENS
73530,DAVIDSON,TILLMAN
73531,DEVOL,COTTON
73537,ELDORADO,JACKSON
73538,ELGIN,COMANCHE
73539,ELMER,JACKSON
73540,FAXON,COMANCHE
73547,GRANITE,GREER
73548,HASTINGS,JEFFERSON
73549,HEADRICK,JACKSON
73550,HOLLIS,HARMON
73551,HOLLISTER,TILLMAN
73552,INDIAHOMA,COMANCHE
73558,MEERS,COMANCHE
73559,MOUNTAIN PARK,KIOWA
73560,OLUSTEE,JACKSON
73561,OSCAR,JEFFERSON
73568,TEMPLE,COTTON
73569,TERRAL,JEFFERSON
73570,TIPTON,TILLMAN
73571,VINSON,HARMON
73572,WALTERS,COTTON
73573,WAURIKA,JEFFERSON
73601,CLINTON,CUSTER
73620,ARAPAHO,CUSTER
73622,BESSIE,WASHITA
73624,BURNS FLAT,WASHITA
73638,CRAWFORD,ROGER MILLS
73639,CUSTER CITY,CUSTER
73641,DILL CITY,WASHITA
73642,DURHAM,ROGER MILLS
73644,ELK CITY,BECKHAM
73562,RANDLETT,COTTON
73564,ROOSEVELT,KIOWA
73565,RYAN,JEFFERSON
73566,SNYDER,KIOWA
73567,STERLING,COMANCHE
73625,BUTLER,CUSTER
73626,CANUTE,WASHITA
73627,CARTER,BECKHAM
73628,CHEYENNE,ROGER MILLS
73632,CORDELL,WASHITA
73645,ERICK,BECKHAM
73646,FAY,DEWEY
73647,FOSS,WASHITA
73648,ELK CITY,BECKHAM
73650,HAMMON,ROGER MILLS
73651,HOBART,KIOWA
73661,ROCKY,WASHITA
73662,SAYRE,BECKHAM
73663,SEILING,DEWEY
73664,SENTINEL,WASHITA
73666,SWEETWATER,ROGER MILLS
73702,ENID,GARFIELD
73703,ENID,GARFIELD
73705,ENID,GARFIELD
73706,ENID,GARFIELD
73716,ALINE,ALFALFA
73717,ALVA,WOODS
73724,CANTON,BLAINE
73726,CARMEN,ALFALFA
73727,CARRIER,GARFIELD
73728,CHEROKEE,ALFALFA
73735,DRUMMOND,GARFIELD
73736,FAIRMONT,GARFIELD
73737,FAIRVIEW,MAJOR
73738,GARBER,GARFIELD
73739,GOLTRY,ALFALFA
73749,JET,ALFALFA
73750,KINGFISHER,KINGFISHER
73753,KREMLIN,GARFIELD
73754,LAHOMA,GARFIELD
73755,LONGDALE,BLAINE
73756,LOYAL,KINGFISHER
73654,LEEDEY,DEWEY
73655,LONE WOLF,KIOWA
73658,OAKWOOD,DEWEY
73659,PUTNAM,DEWEY
73660,REYDON,ROGER MILLS
73667,TALOGA,DEWEY
73668,TEXOLA,BECKHAM
73669,THOMAS,CUSTER
73673,WILLOW,GREER
73701,ENID,GARFIELD
73718,AMES,MAJOR
73719,AMORITA,ALFALFA
73720,BISON,GARFIELD
73722,BURLINGTON,ALFALFA
73729,CLEO SPRINGS,MAJOR
73730,COVINGTON,GARFIELD
73731,DACOMA,WOODS
73733,DOUGLAS,GARFIELD
73734,DOVER,KINGFISHER
73741,HELENA,ALFALFA
74003,BARTLESVILLE,WASHINGTON
74004,BARTLESVILLE,WASHINGTON
74005,BARTLESVILLE,WASHINGTON
74008,BIXBY,TULSA
74010,BRISTOW,CREEK
74013,BROKEN ARROW,TULSA
74014,BROKEN ARROW,WAGONER
74015,CATOOSA,ROGERS
73848,LAVERNE,HARPER
73851,MAY,HARPER
73852,MOORELAND,WOODWARD
73853,MUTUAL,WOODWARD
73855,ROSSTON,HARPER
73932,BEAVER,BEAVER
73933,BOISE CITY,CIMARRON
73937,FELT,CIMARRON
73938,FORGAN,BEAVER
73939,GOODWELL,TEXAS
73949,TEXHOMA,TEXAS
73950,TURPIN,BEAVER
73951,TYRONE,TEXAS
74001,AVANT,OSAGE
74006,BARTLESVILLE,WASHINGTON
74011,BROKEN ARROW,TULSA
74012,BROKEN ARROW,TULSA
74016,CHELSEA,ROGERS
74018,CLAREMORE,ROGERS
74019,CLAREMORE,ROGERS
74017,CLAREMORE,ROGERS
74020,CLEVELAND,PAWNEE
74021,COLLINSVILLE,TULSA
74026,DAVENPORT,LINCOLN
74027,DELAWARE,NOWATA
74028,DEPEW,CREEK
74029,DEWEY,WASHINGTON
74034,HALLETT,PAWNEE
74035,HOMINY,OSAGE
74036,INOLA,ROGERS
74041,KIEFER,CREEK
74042,LENAPAH,NOWATA
74043,LEONARD,TULSA
74044,MANNFORD,CREEK
74045,MARAMEC,PAWNEE
74046,MILFAY,CREEK
74051,OCHELATA,WASHINGTON
74052,OILTON,CREEK
74053,OOLOGAH,ROGERS
74054,OSAGE,OSAGE
74055,OWASSO,TULSA
74058,PAWNEE,PAWNEE
74022,COPAN,WASHINGTON
74023,CUSHING,PAYNE
74030,DRUMRIGHT,CREEK
74031,FOYIL,ROGERS
74032,GLENCOE,PAYNE
74033,GLENPOOL,TULSA
74037,JENKS,TULSA
74038,JENNINGS,PAWNEE
74039,KELLYVILLE,CREEK
74047,MOUNDS,CREEK
74048,NOWATA,NOWATA
74050,OAKHURST,TULSA
74056,PAWHUSKA,OSAGE
74059,PERKINS,PAYNE
74060,PRUE,OSAGE
74061,RAMONA,WASHINGTON
74062,RIPLEY,PAYNE
74067,SAPULPA,CREEK
74068,SHAMROCK,CREEK
74074,STILLWATER,PAYNE
74075,STILLWATER,PAYNE
74076,STILLWATER,PAYNE
74063,SAND SPRINGS,TULSA
74066,SAPULPA,CREEK
74070,SKIATOOK,TULSA
74071,SLICK,CREEK
74072,S COFFEYVILLE,NOWATA
74073,SPERRY,TULSA
74077,STILLWATER,PAYNE
74080,TALALA,ROGERS
74081,TERLTON,PAWNEE
74082,VERA,WASHINGTON
74083,WANN,NOWATA
74084,WYNONA,OSAGE
74085,YALE,PAYNE
74101,TULSA,TULSA
74102,TULSA,TULSA
74103,TULSA,TULSA
74110,TULSA,TULSA
74112,TULSA,TULSA
74114,TULSA,TULSA
74115,TULSA,TULSA
74116,TULSA,TULSA
74127,TULSA,TULSA
74128,TULSA,TULSA
74129,TULSA,TULSA
74130,TULSA,TULSA
74131,TULSA,CREEK
74137,TULSA,TULSA
74141,TULSA,TULSA
74145,TULSA,TULSA
74146,TULSA,TULSA
74078,STILLWATER,PAYNE
74079,STROUD,LINCOLN
74104,TULSA,TULSA
74105,TULSA,TULSA
74106,TULSA,TULSA
74107,TULSA,TULSA
74108,TULSA,TULSA
74117,TULSA,TULSA
74119,TULSA,TULSA
74120,TULSA,TULSA
74121,TULSA,TULSA
74126,TULSA,TULSA
74132,TULSA,TULSA
74133,TULSA,TULSA
74134,TULSA,TULSA
74135,TULSA,TULSA
74136,TULSA,TULSA
74147,TULSA,TULSA
74148,TULSA,TULSA
74149,TULSA,TULSA
74150,TULSA,TULSA
74152,TULSA,TULSA
74159,TULSA,TULSA
74169,TULSA,TULSA
74170,TULSA,TULSA
74171,TULSA,TULSA
74186,TULSA,TULSA
74187,TULSA,TULSA
74192,TULSA,TULSA
74193,TULSA,TULSA
74301,VINITA,CRAIG
74153,TULSA,TULSA
74155,TULSA,TULSA
74156,TULSA,TULSA
74157,TULSA,TULSA
74158,TULSA,TULSA
74172,TULSA,TULSA
74182,TULSA,TULSA
74330,ADAIR,MAYES
74331,AFTON,OTTAWA
74335,CARDIN,OTTAWA
74337,CHOUTEAU,MAYES
74338,COLCORD,DELAWARE
74345,GROVE,DELAWARE
74346,JAY,DELAWARE
74347,KANSAS,DELAWARE
74349,KETCHUM,MAYES
74355,MIAMI,OTTAWA
74358,NORTH MIAMI,OTTAWA
74359,OAKS,DELAWARE
74360,PICHER,OTTAWA
74363,QUAPAW,OTTAWA
74364,ROSE,MAYES
74365,SALINA,MAYES
74366,SPAVINAW,MAYES
74367,STRANG,MAYES
74401,MUSKOGEE,MUSKOGEE
74332,BIG CABIN,CRAIG
74333,BLUEJACKET,OTTAWA
74339,COMMERCE,OTTAWA
74340,DISNEY,MAYES
74342,EUCHA,DELAWARE
74343,FAIRLAND,OTTAWA
74344,GROVE,DELAWARE
74350,LANGLEY,MAYES
74352,LOCUST GROVE,MAYES
74354,MIAMI,OTTAWA
74361,PRYOR,MAYES
74362,PRYOR,MAYES
74368,TWIN OAKS,DELAWARE
74369,WELCH,CRAIG
74370,WYANDOTTE,OTTAWA
74402,MUSKOGEE,MUSKOGEE
74423,BRAGGS,MUSKOGEE
74425,CANADIAN,PITTSBURG
74426,CHECOTAH,MCINTOSH
74430,CROWDER,PITTSBURG
74431,DEWAR,OKMULGEE
74432,EUFAULA,MCINTOSH
74403,MUSKOGEE,MUSKOGEE
74421,BEGGS,OKMULGEE
74422,BOYNTON,MUSKOGEE
74427,COOKSON,CHEROKEE
74428,COUNCIL HILL,MUSKOGEE
74429,COWETA,WAGONER
74434,FORT GIBSON,MUSKOGEE
74435,GORE,SEQUOYAH
74436,HASKELL,MUSKOGEE
74438,HITCHITA,MCINTOSH
74439,BRAGGS,MUSKOGEE
74440,HOYT,HASKELL
74441,HULBERT,CHEROKEE
74442,INDIANOLA,PITTSBURG
74450,OKTAHA,MUSKOGEE
74451,PARK HILL,CHEROKEE
74457,PROCTOR,ADAIR
74458,REDBIRD,WAGONER
74459,RENTIESVILLE,MCINTOSH
74460,SCHULTER,OKMULGEE
74461,STIDHAM,MCINTOSH
74465,TAHLEQUAH,CHEROKEE
74472,WHITEFIELD,HASKELL
74477,WAGONER,WAGONER
74501,MCALESTER,PITTSBURG
74437,HENRYETTA,OKMULGEE
74444,MOODYS,CHEROKEE
74445,MORRIS,OKMULGEE
74446,OKAY,WAGONER
74447,OKMULGEE,OKMULGEE
74452,PEGGS,CHEROKEE
74454,PORTER,WAGONER
74455,PORUM,MUSKOGEE
74456,PRESTON,OKMULGEE
74462,STIGLER,HASKELL
74463,TAFT,MUSKOGEE
74464,TAHLEQUAH,CHEROKEE
74467,WAGONER,WAGONER
74468,WAINWRIGHT,MUSKOGEE
74469,WARNER,MUSKOGEE
74470,WEBBERS FALLS,MUSKOGEE
74471,WELLING,CHEROKEE
74502,MCALESTER,PITTSBURG
74521,ALBION,PUSHMATAHA
74530,BROMIDE,JOHNSTON
74531,CALVIN,HUGHES
74533,CANEY,ATOKA
74534,CENTRAHOMA,COAL
74535,CLARITA,COAL
74536,CLAYTON,PUSHMATAHA
74538,COALGATE,COAL
74522,ALDERSON,PITTSBURG
74523,ANTLERS,PUSHMATAHA
74525,ATOKA,ATOKA
74528,BLANCO,PITTSBURG
74529,BLOCKER,PITTSBURG
74540,DAISY,ATOKA
74543,FINLEY,PUSHMATAHA
74545,GOWEN,LATIMER
74546,HAILEYVILLE,PITTSBURG
74547,HARTSHORNE,PITTSBURG
74557,MOYERS,PUSHMATAHA
74558,NASHOBA,PUSHMATAHA
74559,PANOLA,LATIMER
74560,PITTSBURG,PITTSBURG
74561,QUINTON,PITTSBURG
74562,RATTAN,PUSHMATAHA
74571,TALIHINA,LATIMER
74572,TUPELO,COAL
74574,TUSKAHOMA,PUSHMATAHA
74576,WARDVILLE,PITTSBURG
74577,WHITESBORO,LE FLORE
74578,WILBURTON,LATIMER
74601,PONCA CITY,KAY
74602,PONCA CITY,KAY
74633,BURBANK,OSAGE
74636,DEER CREEK,GRANT
74637,FAIRFAX,OSAGE
74640,HUNTER,GARFIELD
74650,RALSTON,PAWNEE
74651,RED ROCK,NOBLE
74652,SHIDLER,OSAGE
74721,ALBANY,BRYAN
74722,BATTIEST,MCCURTAIN
74723,BENNINGTON,BRYAN
74724,BETHEL,MCCURTAIN
74549,HONOBIA,LE FLORE
74552,KINTA,HASKELL
74553,KIOWA,PITTSBURG
74554,KREBS,PITTSBURG
74555,LANE,ATOKA
74556,LEHIGH,COAL
74563,RED OAK,LATIMER
74565,SAVANNA,PITTSBURG
74567,SNOW,PUSHMATAHA
74569,STRINGTOWN,ATOKA
74570,STUART,HUGHES
74604,PONCA CITY,KAY
74630,BILLINGS,NOBLE
74631,BLACKWELL,KAY
74632,BRAMAN,KAY
74641,KAW CITY,KAY
74643,LAMONT,GRANT
74644,MARLAND,NOBLE
74646,NARDIN,KAY
74647,NEWKIRK,KAY
74653,TONKAWA,KAY
74701,DURANT,BRYAN
74702,DURANT,BRYAN
74720,ACHILLE,BRYAN
74726,BOKCHITO,BRYAN
74727,BOSWELL,CHOCTAW
74728,BROKEN BOW,MCCURTAIN
74735,FORT TOWSON,CHOCTAW
74736,GARVIN,MCCURTAIN
74737,GOLDEN,MCCURTAIN
74738,GRANT,CHOCTAW
74740,HAWORTH,MCCURTAIN
74748,KENEFIC,JOHNSTON
74750,MILLERTON,MCCURTAIN
74752,PICKENS,MCCURTAIN
74753,PLATTER,BRYAN
74754,RINGOLD,MCCURTAIN
74755,RUFE,MCCURTAIN
74729,CADDO,BRYAN
74730,CALERA,BRYAN
74731,CARTWRIGHT,BRYAN
74733,COLBERT,BRYAN
74734,EAGLETOWN,MCCURTAIN
74741,HENDRIX,BRYAN
74743,HUGO,CHOCTAW
74745,IDABEL,MCCURTAIN
74747,KEMP,BRYAN
74756,SAWYER,CHOCTAW
74759,SOPER,CHOCTAW
74760,SPENCERVILLE,CHOCTAW
74761,SWINK,CHOCTAW
74764,VALLIANT,MCCURTAIN
74766,WRIGHT CITY,MCCURTAIN
74818,SEMINOLE,SEMINOLE
74820,ADA,PONTOTOC
74821,ADA,PONTOTOC
74830,BOWLEGS,SEMINOLE
74831,BYARS,MCCLAIN
74832,CARNEY,LINCOLN
74833,CASTLE,OKFUSKEE
74840,EARLSBORO,POTTAWATOMIE
74842,FITTSTOWN,PONTOTOC
74843,FITZHUGH,PONTOTOC
74844,FRANCIS,PONTOTOC
74845,HANNA,MCINTOSH
74850,LAMAR,HUGHES
74851,MCLOUD,POTTAWATOMIE
74852,MACOMB,POTTAWATOMIE
74854,MAUD,POTTAWATOMIE
74859,OKEMAH,OKFUSKEE
74860,PADEN,OKFUSKEE
74864,PRAGUE,LINCOLN
74865,ROFF,PONTOTOC
74801,SHAWNEE,POTTAWATOMIE
74802,SHAWNEE,POTTAWATOMIE
74804,SHAWNEE,POTTAWATOMIE
74824,AGRA,LINCOLN
74825,ALLEN,PONTOTOC
74826,ASHER,POTTAWATOMIE
74827,ATWOOD,HUGHES
74829,BOLEY,OKFUSKEE
74834,CHANDLER,LINCOLN
74836,CONNERVILLE,JOHNSTON
74837,CROMWELL,SEMINOLE
74839,DUSTIN,HUGHES
74848,HOLDENVILLE,HUGHES
74849,KONAWA,SEMINOLE
74855,MEEKER,LINCOLN
74856,MILL CREEK,JOHNSTON
74857,NEWALLA,CLEVELAND
74866,SAINT LOUIS,POTTAWATOMIE
74867,SASAKWA,SEMINOLE
74868,SEMINOLE,SEMINOLE
74869,SPARKS,LINCOLN
74875,TRYON,LINCOLN
74878,WANETTE,POTTAWATOMIE
74880,WELEETKA,OKFUSKEE
74884,WEWOKA,SEMINOLE
74901,ARKOMA,LE FLORE
74902,POCOLA,LE FLORE
74930,BOKOSHE,LE FLORE
74871,STONEWALL,PONTOTOC
74872,STRATFORD,GARVIN
74873,TECUMSEH,POTTAWATOMIE
74881,WELLSTON,LINCOLN
74883,WETUMKA,HUGHES
74931,BUNCH,ADAIR
74932,CAMERON,LE FLORE
74935,FANSHAWE,LE FLORE
74936,GANS,SEQUOYAH
74937,HEAVENER,LE FLORE
74944,MCCURTAIN,HASKELL
74945,MARBLE CITY,SEQUOYAH
74946,MOFFETT,SEQUOYAH
74947,MONROE,LE FLORE
74948,MULDROW,SEQUOYAH
74956,SHADY POINT,LE FLORE
74957,SMITHVILLE,MCCURTAIN
74959,SPIRO,LE FLORE
74960,STILWELL,ADAIR
74962,VIAN,SEQUOYAH
74963,WATSON,MCCURTAIN
74964,WATTS,ADAIR
74965,WESTVILLE,ADAIR
74966,WISTER,LE FLORE
74939,HODGEN,LE FLORE
74940,HOWE,LE FLORE
74941,KEOTA,HASKELL
74942,LEFLORE,LE FLORE
74943,LEQUIRE,HASKELL
74949,MUSE,LE FLORE
74951,PANAMA,LE FLORE
74953,POTEAU,LE FLORE
74954,ROLAND,SEQUOYAH
74955,SALLISAW,SEQUOYAH
