ZipCode,City,County
15235,PITTSBURGH,ALLEGHENY
15001,ALIQUIPPA,BEAVER
15003,AMBRIDGE,BEAVER
15004,ATLASBURG,WASHINGTON
15005,BADEN,BEAVER
15006,BAIRDFORD,ALLEGHENY
15010,BEAVER FALLS,BEAVER
15014,BRACKENRIDGE,ALLEGHENY
15015,BRADFORDWOODS,ALLEGHENY
15017,BRIDGEVILLE,ALLEGHENY
15018,BUENA VISTA,ALLEGHENY
15019,BULGER,WASHINGTON
15022,CHARLEROI,WASHINGTON
15024,CHESWICK,ALLEGHENY
15027,CONWAY,BEAVER
15028,COULTERS,ALLEGHENY
15030,CREIGHTON,ALLEGHENY
15031,CUDDY,ALLEGHENY
15032,CURTISVILLE,ALLEGHENY
15037,ELIZABETH,ALLEGHENY
15038,ELRAMA,WASHINGTON
15042,FREEDOM,BEAVER
15043,GEORGETOWN,BEAVER
15007,BAKERSTOWN,ALLEGHENY
15009,BEAVER,BEAVER
15012,BELLE VERNON,FAYETTE
15020,BUNOLA,ALLEGHENY
15021,BURGETTSTOWN,WASHINGTON
15025,CLAIRTON,ALLEGHENY
15026,CLINTON,BEAVER
15033,DONORA,WASHINGTON
15034,DRAVOSBURG,ALLEGHENY
15035,EAST MC KEESPORT,ALLEGHENY
15044,GIBSONIA,ALLEGHENY
15045,GLASSPORT,ALLEGHENY
15046,CRESCENT,ALLEGHENY
15047,GREENOCK,ALLEGHENY
15054,LANGELOTH,WASHINGTON
15055,LAWRENCE,WASHINGTON
15056,LEETSDALE,ALLEGHENY
15057,MC DONALD,WASHINGTON
15059,MIDLAND,BEAVER
15060,MIDWAY,WASHINGTON
15061,MONACA,BEAVER
15062,MONESSEN,WESTMORELAND
15063,MONONGAHELA,WASHINGTON
15049,HARWICK,ALLEGHENY
15050,HOOKSTOWN,BEAVER
15051,INDIANOLA,ALLEGHENY
15052,INDUSTRY,BEAVER
15053,JOFFRE,WASHINGTON
15064,MORGAN,ALLEGHENY
15065,NATRONA HEIGHTS,ALLEGHENY
15066,NEW BRIGHTON,BEAVER
15067,NEW EAGLE,WASHINGTON
15069,NEW KENSINGTON,WESTMORELAND
15076,RUSSELLTON,ALLEGHENY
15077,SHIPPINGPORT,BEAVER
15078,SLOVAN,WASHINGTON
15081,SOUTH HEIGHTS,BEAVER
15082,STURGEON,ALLEGHENY
15088,WEST ELIZABETH,ALLEGHENY
15089,WEST NEWTON,WESTMORELAND
15090,WEXFORD,ALLEGHENY
15091,WILDWOOD,ALLEGHENY
15102,BETHEL PARK,ALLEGHENY
15104,BRADDOCK,ALLEGHENY
15106,CARNEGIE,ALLEGHENY
15110,DUQUESNE,ALLEGHENY
15120,HOMESTEAD,ALLEGHENY
15122,WEST MIFFLIN,ALLEGHENY
15068,NEW KENSINGTON,WESTMORELAND
15071,OAKDALE,ALLEGHENY
15072,PRICEDALE,WESTMORELAND
15074,ROCHESTER,BEAVER
15075,RURAL RIDGE,ALLEGHENY
15083,SUTERSVILLE,WESTMORELAND
15084,TARENTUM,ALLEGHENY
15085,TRAFFORD,WESTMORELAND
15086,WARRENDALE,ALLEGHENY
15087,WEBSTER,WESTMORELAND
15095,WARRENDALE,ALLEGHENY
15096,WARRENDALE,ALLEGHENY
15101,ALLISON PARK,ALLEGHENY
15108,CORAOPOLIS,ALLEGHENY
15112,EAST PITTSBURGH,ALLEGHENY
15116,GLENSHAW,ALLEGHENY
15123,WEST MIFFLIN,ALLEGHENY
15126,IMPERIAL,ALLEGHENY
15127,INGOMAR,ALLEGHENY
15129,SOUTH PARK,ALLEGHENY
15131,MCKEESPORT,ALLEGHENY
15132,MCKEESPORT,ALLEGHENY
15133,MCKEESPORT,ALLEGHENY
15134,MCKEESPORT,ALLEGHENY
15135,MCKEESPORT,ALLEGHENY
15140,PITCAIRN,ALLEGHENY
15142,PRESTO,ALLEGHENY
15143,SEWICKLEY,ALLEGHENY
15148,WILMERDING,ALLEGHENY
15201,PITTSBURGH,ALLEGHENY
15204,PITTSBURGH,ALLEGHENY
15207,PITTSBURGH,ALLEGHENY
15208,PITTSBURGH,ALLEGHENY
15210,PITTSBURGH,ALLEGHENY
15212,PITTSBURGH,ALLEGHENY
15136,MC KEES ROCKS,ALLEGHENY
15137,NORTH VERSAILLES,ALLEGHENY
15139,OAKMONT,ALLEGHENY
15144,SPRINGDALE,ALLEGHENY
15145,TURTLE CREEK,ALLEGHENY
15146,MONROEVILLE,ALLEGHENY
15147,VERONA,ALLEGHENY
15202,PITTSBURGH,ALLEGHENY
15203,PITTSBURGH,ALLEGHENY
15205,PITTSBURGH,ALLEGHENY
15206,PITTSBURGH,ALLEGHENY
15209,PITTSBURGH,ALLEGHENY
15211,PITTSBURGH,ALLEGHENY
15213,PITTSBURGH,ALLEGHENY
15214,PITTSBURGH,ALLEGHENY
15215,PITTSBURGH,ALLEGHENY
15217,PITTSBURGH,ALLEGHENY
15220,PITTSBURGH,ALLEGHENY
15222,PITTSBURGH,ALLEGHENY
15225,PITTSBURGH,ALLEGHENY
15226,PITTSBURGH,ALLEGHENY
15229,PITTSBURGH,ALLEGHENY
15232,PITTSBURGH,ALLEGHENY
15233,PITTSBURGH,ALLEGHENY
15216,PITTSBURGH,ALLEGHENY
15218,PITTSBURGH,ALLEGHENY
15219,PITTSBURGH,ALLEGHENY
15221,PITTSBURGH,ALLEGHENY
15223,PITTSBURGH,ALLEGHENY
15224,PITTSBURGH,ALLEGHENY
15227,PITTSBURGH,ALLEGHENY
15228,PITTSBURGH,ALLEGHENY
15230,PITTSBURGH,ALLEGHENY
15231,PITTSBURGH,ALLEGHENY
15234,PITTSBURGH,ALLEGHENY
15236,PITTSBURGH,ALLEGHENY
15237,PITTSBURGH,ALLEGHENY
15239,PITTSBURGH,ALLEGHENY
15242,PITTSBURGH,ALLEGHENY
15243,PITTSBURGH,ALLEGHENY
15244,PITTSBURGH,ALLEGHENY
15254,PITTSBURGH,ALLEGHENY
15255,PITTSBURGH,ALLEGHENY
15260,PITTSBURGH,ALLEGHENY
15261,PITTSBURGH,ALLEGHENY
15267,PITTSBURGH,ALLEGHENY
15268,PITTSBURGH,ALLEGHENY
15270,PITTSBURGH,ALLEGHENY
15238,PITTSBURGH,ALLEGHENY
15240,PITTSBURGH,ALLEGHENY
15241,PITTSBURGH,ALLEGHENY
15250,PITTSBURGH,ALLEGHENY
15251,PITTSBURGH,ALLEGHENY
15252,PITTSBURGH,ALLEGHENY
15253,PITTSBURGH,ALLEGHENY
15257,PITTSBURGH,ALLEGHENY
15258,PITTSBURGH,ALLEGHENY
15259,PITTSBURGH,ALLEGHENY
15262,PITTSBURGH,ALLEGHENY
15264,PITTSBURGH,ALLEGHENY
15265,PITTSBURGH,ALLEGHENY
15272,PITTSBURGH,ALLEGHENY
15274,PITTSBURGH,ALLEGHENY
15275,PITTSBURGH,ALLEGHENY
15276,PITTSBURGH,ALLEGHENY
15281,PITTSBURGH,ALLEGHENY
15282,PITTSBURGH,ALLEGHENY
15290,PITTSBURGH,ALLEGHENY
15295,PITTSBURGH,ALLEGHENY
15301,WASHINGTON,WASHINGTON
15277,PITTSBURGH,ALLEGHENY
15278,PITTSBURGH,ALLEGHENY
15279,PITTSBURGH,ALLEGHENY
15283,PITTSBURGH,ALLEGHENY
15286,PITTSBURGH,ALLEGHENY
15289,PITTSBURGH,ALLEGHENY
15310,ALEPPO,GREENE
15311,AMITY,WASHINGTON
15312,AVELLA,WASHINGTON
15313,BEALLSVILLE,WASHINGTON
15320,CARMICHAELS,GREENE
15321,CECIL,WASHINGTON
15322,CLARKSVILLE,GREENE
15330,EIGHTY FOUR,WASHINGTON
15331,ELLSWORTH,WASHINGTON
15332,FINLEYVILLE,WASHINGTON
15333,FREDERICKTOWN,WASHINGTON
15334,GARARDS FORT,GREENE
15340,HICKORY,WASHINGTON
15341,HOLBROOK,GREENE
15342,HOUSTON,WASHINGTON
15344,JEFFERSON,GREENE
15345,MARIANNA,WASHINGTON
15349,MOUNT MORRIS,GREENE
15350,MUSE,WASHINGTON
15351,NEMACOLIN,GREENE
15352,NEW FREEPORT,GREENE
15361,SOUTHVIEW,WASHINGTON
15362,SPRAGGS,GREENE
15363,STRABANE,WASHINGTON
15364,SYCAMORE,GREENE
15365,TAYLORSTOWN,WASHINGTON
15314,BENTLEYVILLE,WASHINGTON
15315,BOBTOWN,GREENE
15316,BRAVE,GREENE
15317,CANONSBURG,WASHINGTON
15323,CLAYSVILLE,WASHINGTON
15324,COKEBURG,WASHINGTON
15325,CRUCIBLE,GREENE
15327,DILLINER,GREENE
15329,PROSPERITY,WASHINGTON
15336,GASTONVILLE,WASHINGTON
15337,GRAYSVILLE,GREENE
15338,GREENSBORO,GREENE
15339,HENDERSONVILLE,WASHINGTON
15346,MATHER,GREENE
15347,MEADOW LANDS,WASHINGTON
15348,MILLSBORO,WASHINGTON
15353,NINEVEH,GREENE
15357,RICES LANDING,GREENE
15358,RICHEYVILLE,WASHINGTON
15359,ROGERSVILLE,GREENE
15360,SCENERY HILL,WASHINGTON
15366,VAN VOORHIS,WASHINGTON
15367,VENETIA,WASHINGTON
15368,VESTABURG,WASHINGTON
15370,WAYNESBURG,GREENE
15380,WIND RIDGE,GREENE
15401,UNIONTOWN,FAYETTE
15410,ADAH,FAYETTE
15411,ADDISON,SOMERSET
15412,ALLENPORT,WASHINGTON
15413,ALLISON,FAYETTE
15415,BRIER HILL,FAYETTE
15416,BROWNFIELD,FAYETTE
15417,BROWNSVILLE,FAYETTE
15376,WEST ALEXANDER,WASHINGTON
15377,WEST FINLEY,WASHINGTON
15378,WESTLAND,WASHINGTON
15379,WEST MIDDLETOWN,WASHINGTON
15419,CALIFORNIA,WASHINGTON
15420,CARDALE,FAYETTE
15421,CHALK HILL,FAYETTE
15425,CONNELLSVILLE,FAYETTE
15427,DAISYTOWN,WASHINGTON
15433,EAST MILLSBORO,FAYETTE
15434,ELCO,WASHINGTON
15435,FAIRBANK,FAYETTE
15436,FAIRCHANCE,FAYETTE
15442,GRINDSTONE,FAYETTE
15443,HIBBS,FAYETTE
15444,HILLER,FAYETTE
15445,HOPWOOD,FAYETTE
15446,INDIAN HEAD,FAYETTE
15454,LECKRONE,FAYETTE
15455,LEISENRING,FAYETTE
15456,LEMONT FURNACE,FAYETTE
15459,MARKLEYSBURG,FAYETTE
15460,MARTIN,FAYETTE
15461,MASONTOWN,FAYETTE
15462,MELCROFT,FAYETTE
15463,MERRITTSTOWN,FAYETTE
15468,NEW SALEM,FAYETTE
15469,NORMALVILLE,FAYETTE
15470,OHIOPYLE,FAYETTE
15472,OLIVER,FAYETTE
15473,PERRYOPOLIS,FAYETTE
15422,CHESTNUT RIDGE,FAYETTE
15423,COAL CENTER,WASHINGTON
15424,CONFLUENCE,SOMERSET
15428,DAWSON,FAYETTE
15429,DENBO,WASHINGTON
15430,DICKERSON RUN,FAYETTE
15431,DUNBAR,FAYETTE
15432,DUNLEVY,WASHINGTON
15437,FARMINGTON,FAYETTE
15438,FAYETTE CITY,FAYETTE
15439,GANS,FAYETTE
15440,GIBBON GLADE,FAYETTE
15447,ISABELLA,FAYETTE
15448,JACOBS CREEK,WESTMORELAND
15449,KEISTERVILLE,FAYETTE
15450,LA BELLE,FAYETTE
15451,LAKE LYNN,FAYETTE
15458,MC CLELLANDTOWN,FAYETTE
15464,MILL RUN,FAYETTE
15465,MOUNT BRADDOCK,FAYETTE
15466,NEWELL,FAYETTE
15467,NEW GENEVA,FAYETTE
15474,POINT MARION,FAYETTE
15475,REPUBLIC,FAYETTE
15476,RONCO,FAYETTE
15482,STAR JUNCTION,FAYETTE
15483,STOCKDALE,WASHINGTON
15484,ULEDI,FAYETTE
15485,URSINA,SOMERSET
15486,VANDERBILT,FAYETTE
15477,ROSCOE,WASHINGTON
15478,SMITHFIELD,FAYETTE
15479,SMITHTON,WESTMORELAND
15480,SMOCK,FAYETTE
15488,WALTERSBURG,FAYETTE
15489,WEST LEISENRING,FAYETTE
15490,WHITE,FAYETTE
15492,WICKHAVEN,FAYETTE
15521,ALUM BANK,BEDFORD
15522,BEDFORD,BEDFORD
15530,BERLIN,SOMERSET
15531,BOSWELL,SOMERSET
15532,BOYNTON,SOMERSET
15538,FAIRHOPE,SOMERSET
15539,FISHERTOWN,BEDFORD
15540,FORT HILL,SOMERSET
15541,FRIEDENS,SOMERSET
15548,KANTNER,SOMERSET
15549,LISTIE,SOMERSET
15550,MANNS CHOICE,BEDFORD
15551,MARKLETON,SOMERSET
15558,SALISBURY,SOMERSET
15559,SCHELLSBURG,BEDFORD
15560,SHANKSVILLE,SOMERSET
15561,SIPESVILLE,SOMERSET
15562,SPRINGS,SOMERSET
15601,GREENSBURG,WESTMORELAND
15605,GREENSBURG,WESTMORELAND
15606,GREENSBURG,WESTMORELAND
15616,ARMBRUST,WESTMORELAND
15617,ARONA,WESTMORELAND
15618,AVONMORE,WESTMORELAND
15619,BOVARD,WESTMORELAND
15501,SOMERSET,SOMERSET
15502,HIDDEN VALLEY,SOMERSET
15510,SOMERSET,SOMERSET
15520,ACOSTA,SOMERSET
15533,BREEZEWOOD,BEDFORD
15534,BUFFALO MILLS,BEDFORD
15535,CLEARVILLE,BEDFORD
15536,CRYSTAL SPRING,FULTON
15537,EVERETT,BEDFORD
15542,GARRETT,SOMERSET
15544,GRAY,SOMERSET
15545,HYNDMAN,BEDFORD
15546,JENNERS,SOMERSET
15547,JENNERSTOWN,SOMERSET
15552,MEYERSDALE,SOMERSET
15553,NEW BALTIMORE,SOMERSET
15554,NEW PARIS,BEDFORD
15555,QUECREEK,SOMERSET
15557,ROCKWOOD,SOMERSET
15563,STOYSTOWN,SOMERSET
15564,WELLERSBURG,SOMERSET
15565,WEST SALISBURY,SOMERSET
15610,ACME,WESTMORELAND
15611,ADAMSBURG,WESTMORELAND
15612,ALVERTON,WESTMORELAND
15613,APOLLO,WESTMORELAND
15615,ARDARA,WESTMORELAND
15620,BRADENVILLE,WESTMORELAND
15621,CALUMET,WESTMORELAND
15622,CHAMPION,WESTMORELAND
15623,CLARIDGE,WESTMORELAND
15624,CRABTREE,WESTMORELAND
15625,DARRAGH,WESTMORELAND
15626,DELMONT,WESTMORELAND
15627,DERRY,WESTMORELAND
15628,DONEGAL,WESTMORELAND
15629,EAST VANDERGRIFT,WESTMORELAND
15631,EVERSON,FAYETTE
15632,EXPORT,WESTMORELAND
15638,HOSTETTER,WESTMORELAND
15639,HUNKER,WESTMORELAND
15640,HUTCHINSON,WESTMORELAND
15641,HYDE PARK,WESTMORELAND
15646,JONES MILLS,WESTMORELAND
15647,LARIMER,WESTMORELAND
15650,LATROBE,WESTMORELAND
15655,LAUGHLINTOWN,WESTMORELAND
15658,LIGONIER,WESTMORELAND
15660,LOWBER,WESTMORELAND
15661,LOYALHANNA,WESTMORELAND
15662,LUXOR,WESTMORELAND
15663,MADISON,WESTMORELAND
15670,NEW ALEXANDRIA,WESTMORELAND
15671,NEW DERRY,WESTMORELAND
15672,NEW STANTON,WESTMORELAND
15673,NORTH APOLLO,ARMSTRONG
15674,NORVELT,WESTMORELAND
15675,PENN,WESTMORELAND
15676,PLEASANT UNITY,WESTMORELAND
15677,RECTOR,WESTMORELAND
15683,SCOTTDALE,WESTMORELAND
15684,SLICKVILLE,WESTMORELAND
15685,SOUTHWEST,WESTMORELAND
15686,SPRING CHURCH,ARMSTRONG
15687,STAHLSTOWN,WESTMORELAND
15692,WESTMORELAND CITY,WESTMORELAND
15693,WHITNEY,WESTMORELAND
15695,WYANO,WESTMORELAND
15696,YOUNGSTOWN,WESTMORELAND
15633,FORBES ROAD,WESTMORELAND
15634,GRAPEVILLE,WESTMORELAND
15635,HANNASTOWN,WESTMORELAND
15636,HARRISON CITY,WESTMORELAND
15637,HERMINIE,WESTMORELAND
15642,IRWIN,WESTMORELAND
15644,JEANNETTE,WESTMORELAND
15656,LEECHBURG,ARMSTRONG
15664,MAMMOTH,WESTMORELAND
15665,MANOR,WESTMORELAND
15666,MOUNT PLEASANT,WESTMORELAND
15668,MURRYSVILLE,WESTMORELAND
15678,RILLTON,WESTMORELAND
15679,RUFFS DALE,WESTMORELAND
15680,SALINA,WESTMORELAND
15681,SALTSBURG,INDIANA
15682,SCHENLEY,ARMSTRONG
15688,TARRS,WESTMORELAND
15689,UNITED,WESTMORELAND
15690,VANDERGRIFT,WESTMORELAND
15691,WENDEL,WESTMORELAND
15697,YOUNGWOOD,WESTMORELAND
15698,YUKON,WESTMORELAND
15701,INDIANA,INDIANA
15705,INDIANA,INDIANA
15715,BIG RUN,JEFFERSON
15716,BLACK LICK,INDIANA
15717,BLAIRSVILLE,INDIANA
15710,ALVERDA,INDIANA
15711,ANITA,JEFFERSON
15712,ARCADIA,INDIANA
15713,AULTMAN,INDIANA
15714,NORTHERN CAMBRIA,CAMBRIA
15720,BRUSH VALLEY,INDIANA
15721,BURNSIDE,CLEARFIELD
15722,CARROLLTOWN,CAMBRIA
15723,CHAMBERSVILLE,INDIANA
15724,CHERRY TREE,INDIANA
15731,CORAL,INDIANA
15732,CREEKSIDE,INDIANA
15733,DE LANCEY,JEFFERSON
15734,DIXONVILLE,INDIANA
15736,ELDERTON,ARMSTRONG
15744,HAMILTON,JEFFERSON
15745,HEILWOOD,INDIANA
15746,HILLSDALE,INDIANA
15747,HOME,INDIANA
15754,LUCERNEMINES,INDIANA
15756,MC INTYRE,INDIANA
15757,MAHAFFEY,CLEARFIELD
15762,NICKTOWN,CAMBRIA
15763,NORTHPOINT,INDIANA
15764,OLIVEBURG,JEFFERSON
15765,PENN RUN,INDIANA
15767,PUNXSUTAWNEY,JEFFERSON
15772,ROSSITER,INDIANA
15773,SAINT BENEDICT,CAMBRIA
15774,SHELOCTA,INDIANA
15775,SPANGLER,CAMBRIA
15780,VALIER,JEFFERSON
15781,WALSTON,JEFFERSON
15783,WEST LEBANON,INDIANA
15784,WORTHVILLE,JEFFERSON
15725,CLARKSBURG,INDIANA
15727,CLUNE,INDIANA
15728,CLYMER,INDIANA
15729,COMMODORE,INDIANA
15730,COOLSPRING,JEFFERSON
15737,ELMORA,CAMBRIA
15738,EMEIGH,CAMBRIA
15739,ERNEST,INDIANA
15741,GIPSY,INDIANA
15742,GLEN CAMPBELL,INDIANA
15748,HOMER CITY,INDIANA
15750,JOSEPHINE,INDIANA
15752,KENT,INDIANA
15753,LA JOSE,CLEARFIELD
15758,MARCHAND,INDIANA
15759,MARION CENTER,INDIANA
15760,MARSTELLER,CAMBRIA
15761,MENTCLE,INDIANA
15770,RINGGOLD,JEFFERSON
15771,ROCHESTER MILLS,INDIANA
15776,SPRANKLE MILLS,JEFFERSON
15777,STARFORD,INDIANA
15778,TIMBLIN,JEFFERSON
15779,TORRANCE,WESTMORELAND
15801,DU BOIS,CLEARFIELD
15821,BENEZETT,ELK
15822,BRANDY CAMP,ELK
15823,BROCKPORT,ELK
15824,BROCKWAY,JEFFERSON
15832,DRIFTWOOD,CAMERON
15834,EMPORIUM,CAMERON
15840,FALLS CREEK,JEFFERSON
15841,FORCE,ELK
15845,JOHNSONBURG,ELK
15846,KERSEY,ELK
15825,BROOKVILLE,JEFFERSON
15827,BYRNEDALE,ELK
15828,CLARINGTON,FOREST
15829,CORSICA,JEFFERSON
15831,DAGUS MINES,ELK
15847,KNOX DALE,JEFFERSON
15848,LUTHERSBURG,CLEARFIELD
15849,PENFIELD,CLEARFIELD
15851,REYNOLDSVILLE,JEFFERSON
15853,RIDGWAY,ELK
15861,SINNAMAHONING,CAMERON
15863,STUMP CREEK,JEFFERSON
15864,SUMMERVILLE,JEFFERSON
15865,SYKESVILLE,JEFFERSON
15904,JOHNSTOWN,CAMBRIA
15905,JOHNSTOWN,CAMBRIA
15906,JOHNSTOWN,CAMBRIA
15907,JOHNSTOWN,CAMBRIA
15923,BOLIVAR,WESTMORELAND
15924,CAIRNBROOK,SOMERSET
15925,CASSANDRA,CAMBRIA
15926,CENTRAL CITY,SOMERSET
15927,COLVER,CAMBRIA
15935,HOLLSOPPLE,SOMERSET
15936,HOOVERSVILLE,SOMERSET
15937,JEROME,SOMERSET
15938,LILLY,CAMBRIA
15940,LORETTO,CAMBRIA
15946,PORTAGE,CAMBRIA
15948,REVLOC,CAMBRIA
15949,ROBINSON,INDIANA
15951,SAINT MICHAEL,CAMBRIA
15955,SIDMAN,CAMBRIA
15956,SOUTH FORK,CAMBRIA
15957,STRONGSTOWN,INDIANA
15958,SUMMERHILL,CAMBRIA
15856,ROCKTON,CLEARFIELD
15857,SAINT MARYS,ELK
15860,SIGEL,JEFFERSON
15866,TROUTVILLE,CLEARFIELD
15868,WEEDVILLE,ELK
15870,WILCOX,ELK
15901,JOHNSTOWN,CAMBRIA
15902,JOHNSTOWN,CAMBRIA
15909,JOHNSTOWN,CAMBRIA
15915,JOHNSTOWN,CAMBRIA
15920,ARMAGH,INDIANA
15921,BEAVERDALE,CAMBRIA
15922,BELSANO,CAMBRIA
15928,DAVIDSVILLE,SOMERSET
15929,DILLTOWN,INDIANA
15930,DUNLO,CAMBRIA
15931,EBENSBURG,CAMBRIA
15934,ELTON,CAMBRIA
15942,MINERAL POINT,CAMBRIA
15943,NANTY GLO,CAMBRIA
15944,NEW FLORENCE,WESTMORELAND
15945,PARKHILL,CAMBRIA
15952,SALIX,CAMBRIA
15953,SEANOR,SOMERSET
15954,SEWARD,WESTMORELAND
15959,TIRE HILL,SOMERSET
15960,TWIN ROCKS,CAMBRIA
15961,VINTONDALE,CAMBRIA
15962,WILMORE,CAMBRIA
15963,WINDBER,SOMERSET
16001,BUTLER,BUTLER
16002,BUTLER,BUTLER
16003,BUTLER,BUTLER
16016,BOYERS,BUTLER
16017,BOYERS,BUTLER
16023,CABOT,BUTLER
16024,CALLERY,BUTLER
16025,CHICORA,BUTLER
16027,CONNOQUENESSING,BUTLER
16034,FENELTON,BUTLER
16035,FORESTVILLE,BUTLER
16036,FOXBURG,CLARION
16037,HARMONY,BUTLER
16046,MARS,BUTLER
16048,NORTH WASHINGTON,BUTLER
16049,PARKER,ARMSTRONG
16055,SARVER,BUTLER
16056,SAXONBURG,BUTLER
16057,SLIPPERY ROCK,BUTLER
16058,TURKEY CITY,CLARION
16101,NEW CASTLE,LAWRENCE
16102,NEW CASTLE,LAWRENCE
16103,NEW CASTLE,LAWRENCE
16110,ADAMSVILLE,CRAWFORD
16111,ATLANTIC,CRAWFORD
16112,BESSEMER,LAWRENCE
16113,CLARK,MERCER
16114,CLARKS MILLS,MERCER
16121,FARRELL,MERCER
16123,FOMBELL,BEAVER
16124,FREDONIA,MERCER
16125,GREENVILLE,MERCER
16018,BOYERS,BUTLER
16020,BOYERS,BUTLER
16021,BRANCHTON,BUTLER
16022,BRUIN,BUTLER
16028,EAST BRADY,CLARION
16029,EAST BUTLER,BUTLER
16030,EAU CLAIRE,BUTLER
16033,EVANS CITY,BUTLER
16038,HARRISVILLE,BUTLER
16039,HERMAN,BUTLER
16040,HILLIARDS,BUTLER
16041,KARNS CITY,BUTLER
16045,LYNDORA,BUTLER
16050,PETROLIA,BUTLER
16051,PORTERSVILLE,BUTLER
16052,PROSPECT,BUTLER
16053,RENFREW,BUTLER
16054,SAINT PETERSBURG,CLARION
16059,VALENCIA,BUTLER
16061,WEST SUNBURY,BUTLER
16063,ZELIENOPLE,BUTLER
16066,CRANBERRY TOWNSHIP,BUTLER
16105,NEW CASTLE,LAWRENCE
16107,NEW CASTLE,LAWRENCE
16108,NEW CASTLE,LAWRENCE
16115,DARLINGTON,BEAVER
16116,EDINBURG,LAWRENCE
16117,ELLWOOD CITY,LAWRENCE
16120,ENON VALLEY,LAWRENCE
16127,GROVE CITY,MERCER
16130,HADLEY,MERCER
16131,HARTSTOWN,CRAWFORD
16132,HILLSVILLE,LAWRENCE
16133,JACKSON CENTER,MERCER
16134,JAMESTOWN,MERCER
16136,KOPPEL,BEAVER
16137,MERCER,MERCER
16140,NEW BEDFORD,LAWRENCE
16141,NEW GALILEE,BEAVER
16142,NEW WILMINGTON,LAWRENCE
16143,PULASKI,LAWRENCE
16151,SHEAKLEYVILLE,MERCER
16153,STONEBORO,MERCER
16154,TRANSFER,MERCER
16160,WEST PITTSBURG,LAWRENCE
16161,WHEATLAND,MERCER
16172,NEW WILMINGTON,LAWRENCE
16213,CALLENSBURG,CLARION
16214,CLARION,CLARION
16217,COOKSBURG,FOREST
16218,COWANSVILLE,ARMSTRONG
16220,CROWN,CLARION
16225,FISHER,CLARION
16226,FORD CITY,ARMSTRONG
16228,FORD CLIFF,ARMSTRONG
16229,FREEPORT,ARMSTRONG
16230,HAWTHORN,CLARION
16238,MANORVILLE,ARMSTRONG
16239,MARIENVILLE,FOREST
16240,MAYPORT,CLARION
16242,NEW BETHLEHEM,CLARION
16249,RURAL VALLEY,ARMSTRONG
16250,SAGAMORE,ARMSTRONG
16253,SEMINOLE,ARMSTRONG
16254,SHIPPENVILLE,CLARION
16145,SANDY LAKE,MERCER
16146,SHARON,MERCER
16148,HERMITAGE,MERCER
16150,SHARPSVILLE,MERCER
16155,VILLA MARIA,LAWRENCE
16156,VOLANT,LAWRENCE
16157,WAMPUM,LAWRENCE
16159,WEST MIDDLESEX,MERCER
16201,KITTANNING,ARMSTRONG
16210,ADRIAN,ARMSTRONG
16211,BEYER,INDIANA
16212,CADOGAN,ARMSTRONG
16221,CURLLSVILLE,CLARION
16222,DAYTON,ARMSTRONG
16223,DISTANT,ARMSTRONG
16224,FAIRMOUNT CITY,CLARION
16232,KNOX,CLARION
16233,LEEPER,CLARION
16234,LIMESTONE,CLARION
16235,LUCINDA,CLARION
16236,MC GRANN,ARMSTRONG
16244,NU MINE,ARMSTRONG
16245,OAK RIDGE,ARMSTRONG
16246,PLUMVILLE,INDIANA
16248,RIMERSBURG,CLARION
16255,SLIGO,CLARION
16256,SMICKSBURG,INDIANA
16257,SNYDERSBURG,CLARION
16258,STRATTANVILLE,CLARION
16259,TEMPLETON,ARMSTRONG
16260,VOWINCKEL,CLARION
16261,WIDNOON,ARMSTRONG
16262,WORTHINGTON,ARMSTRONG
16263,YATESBORO,ARMSTRONG
16301,OIL CITY,VENANGO
16311,CARLTON,MERCER
16312,CHANDLERS VALLEY,WARREN
16317,COOPERSTOWN,VENANGO
16319,CRANBERRY,VENANGO
16321,EAST HICKORY,FOREST
16322,ENDEAVOR,FOREST
16329,IRVINE,WARREN
16331,KOSSUTH,CLARION
16332,LICKINGVILLE,CLARION
16333,LUDLOW,MCKEAN
16334,MARBLE,CLARION
16342,POLK,VENANGO
16343,RENO,VENANGO
16344,ROUSEVILLE,VENANGO
16345,RUSSELL,WARREN
16352,TIONA,WARREN
16353,TIONESTA,FOREST
16354,TITUSVILLE,CRAWFORD
16360,TOWNVILLE,CRAWFORD
16366,WARREN,WARREN
16367,WARREN,WARREN
16372,CLINTONVILLE,VENANGO
16373,EMLENTON,VENANGO
16374,KENNERDELL,VENANGO
16375,LAMARTINE,CLARION
16402,BEAR LAKE,WARREN
16403,CAMBRIDGE SPRINGS,CRAWFORD
16313,CLARENDON,WARREN
16314,COCHRANTON,CRAWFORD
16316,CONNEAUT LAKE,CRAWFORD
16323,FRANKLIN,VENANGO
16326,FRYBURG,CLARION
16327,GUYS MILLS,CRAWFORD
16328,HYDETOWN,CRAWFORD
16335,MEADVILLE,CRAWFORD
16340,PITTSFIELD,WARREN
16341,PLEASANTVILLE,VENANGO
16346,SENECA,VENANGO
16347,SHEFFIELD,WARREN
16350,SUGAR GROVE,WARREN
16351,TIDIOUTE,WARREN
16361,TYLERSBURG,CLARION
16362,UTICA,VENANGO
16364,VENUS,VENANGO
16365,WARREN,WARREN
16368,WARREN,WARREN
16369,WARREN,WARREN
16370,WEST HICKORY,FOREST
16371,YOUNGSVILLE,WARREN
16388,MEADVILLE,CRAWFORD
16401,ALBION,ERIE
16404,CENTERVILLE,CRAWFORD
16405,COLUMBUS,WARREN
16406,CONNEAUTVILLE,CRAWFORD
16407,CORRY,ERIE
16410,CRANESVILLE,ERIE
16411,EAST SPRINGFIELD,ERIE
16420,GRAND VALLEY,WARREN
16421,HARBORCREEK,ERIE
16422,HARMONSBURG,CRAWFORD
16423,LAKE CITY,ERIE
16428,NORTH EAST,ERIE
16430,NORTH SPRINGFIELD,ERIE
16432,RICEVILLE,CRAWFORD
16433,SAEGERTOWN,CRAWFORD
16440,VENANGO,CRAWFORD
16441,WATERFORD,ERIE
16442,WATTSBURG,ERIE
16501,ERIE,ERIE
16502,ERIE,ERIE
16503,ERIE,ERIE
16504,ERIE,ERIE
16508,ERIE,ERIE
16509,ERIE,ERIE
16510,ERIE,ERIE
16522,ERIE,ERIE
16530,ERIE,ERIE
16531,ERIE,ERIE
16541,ERIE,ERIE
16544,ERIE,ERIE
16546,ERIE,ERIE
16412,EDINBORO,ERIE
16413,ELGIN,ERIE
16415,FAIRVIEW,ERIE
16416,GARLAND,WARREN
16417,GIRARD,ERIE
16424,LINESVILLE,CRAWFORD
16426,MC KEAN,ERIE
16427,MILL VILLAGE,ERIE
16434,SPARTANSBURG,CRAWFORD
16435,SPRINGBORO,CRAWFORD
16436,SPRING CREEK,WARREN
16438,UNION CITY,ERIE
16443,WEST SPRINGFIELD,ERIE
16444,EDINBORO,ERIE
16475,ALBION,ERIE
16505,ERIE,ERIE
16506,ERIE,ERIE
16507,ERIE,ERIE
16511,ERIE,ERIE
16512,ERIE,ERIE
16514,ERIE,ERIE
16515,ERIE,ERIE
16534,ERIE,ERIE
16538,ERIE,ERIE
16550,ERIE,ERIE
16553,ERIE,ERIE
16563,ERIE,ERIE
16565,ERIE,ERIE
16601,ALTOONA,BLAIR
16602,ALTOONA,BLAIR
16617,BELLWOOD,BLAIR
16619,BLANDBURG,CAMBRIA
16620,BRISBIN,CLEARFIELD
16621,BROAD TOP,HUNTINGDON
16629,COUPON,CAMBRIA
16630,CRESSON,CAMBRIA
16631,CURRYVILLE,BLAIR
16633,DEFIANCE,BEDFORD
16634,DUDLEY,HUNTINGDON
16635,DUNCANSVILLE,BLAIR
16636,DYSART,CAMBRIA
16637,EAST FREEDOM,BLAIR
16638,ENTRIKEN,HUNTINGDON
16646,HASTINGS,CAMBRIA
16647,HESSTON,HUNTINGDON
16648,HOLLIDAYSBURG,BLAIR
16650,HOPEWELL,BEDFORD
16655,IMLER,BEDFORD
16656,IRVONA,CLEARFIELD
16657,JAMES CREEK,HUNTINGDON
16659,LOYSBURG,BEDFORD
16660,MC CONNELLSTOWN,HUNTINGDON
16665,NEWRY,BLAIR
16666,OSCEOLA MILLS,CLEARFIELD
16667,OSTERBURG,BEDFORD
16670,QUEEN,BEDFORD
16671,RAMEY,CLEARFIELD
16672,RIDDLESBURG,BEDFORD
16673,ROARING SPRING,BLAIR
16603,ALTOONA,BLAIR
16611,ALEXANDRIA,HUNTINGDON
16613,ASHVILLE,CAMBRIA
16616,BECCARIA,CLEARFIELD
16622,CALVIN,HUNTINGDON
16623,CASSVILLE,HUNTINGDON
16624,CHEST SPRINGS,CAMBRIA
16625,CLAYSBURG,BLAIR
16627,COALPORT,CLEARFIELD
16639,FALLENTIMBER,CAMBRIA
16640,FLINTON,CAMBRIA
16641,GALLITZIN,CAMBRIA
16644,GLASGOW,CAMBRIA
16645,GLEN HOPE,CLEARFIELD
16651,HOUTZDALE,CLEARFIELD
16652,HUNTINGDON,HUNTINGDON
16654,HUNTINGDON,HUNTINGDON
16661,MADERA,CLEARFIELD
16662,MARTINSBURG,BLAIR
16663,MORANN,CLEARFIELD
16664,NEW ENTERPRISE,BEDFORD
16668,PATTON,CAMBRIA
16669,PETERSBURG,HUNTINGDON
16674,ROBERTSDALE,HUNTINGDON
16675,SAINT BONIFACE,CAMBRIA
16677,SANDY RIDGE,CENTRE
16683,SPRUCE CREEK,HUNTINGDON
16684,TIPTON,BLAIR
16685,TODD,HUNTINGDON
16686,TYRONE,BLAIR
16678,SAXTON,BEDFORD
16679,SIX MILE RUN,BEDFORD
16680,SMITHMILL,CLEARFIELD
16681,SMOKERUN,CLEARFIELD
16682,SPROUL,BLAIR
16689,WATERFALL,FULTON
16691,WELLS TANNERY,FULTON
16692,WESTOVER,CLEARFIELD
16693,WILLIAMSBURG,BLAIR
16701,BRADFORD,MCKEAN
16720,AUSTIN,POTTER
16724,CROSBY,MCKEAN
16729,DUKE CENTER,MCKEAN
16730,EAST SMETHPORT,MCKEAN
16731,ELDRED,MCKEAN
16732,GIFFORD,MCKEAN
16740,MOUNT JEWETT,MCKEAN
16743,PORT ALLEGANY,MCKEAN
16744,REW,MCKEAN
16750,TURTLEPOINT,MCKEAN
16801,STATE COLLEGE,CENTRE
16805,STATE COLLEGE,CENTRE
16820,AARONSBURG,CENTRE
16821,ALLPORT,CLEARFIELD
16822,BEECH CREEK,CLINTON
16827,BOALSBURG,CENTRE
16828,CENTRE HALL,CENTRE
16829,CLARENCE,CENTRE
16830,CLEARFIELD,CLEARFIELD
16832,COBURN,CENTRE
16694,WOOD,BEDFORD
16695,WOODBURY,BEDFORD
16698,HOUTZDALE,CLEARFIELD
16699,CRESSON,CAMBRIA
16725,CUSTER CITY,MCKEAN
16726,CYCLONE,MCKEAN
16727,DERRICK CITY,MCKEAN
16728,DE YOUNG,ELK
16733,HAZEL HURST,MCKEAN
16734,JAMES CITY,ELK
16735,KANE,MCKEAN
16738,LEWIS RUN,MCKEAN
16745,RIXFORD,MCKEAN
16746,ROULETTE,POTTER
16748,SHINGLEHOUSE,POTTER
16749,SMETHPORT,MCKEAN
16802,UNIVERSITY PARK,CENTRE
16803,STATE COLLEGE,CENTRE
16804,STATE COLLEGE,CENTRE
16823,BELLEFONTE,CENTRE
16825,BIGLER,CLEARFIELD
16826,BLANCHARD,CENTRE
16833,CURWENSVILLE,CLEARFIELD
16834,DRIFTING,CLEARFIELD
16835,FLEMING,CENTRE
16836,FRENCHVILLE,CLEARFIELD
16837,GLEN RICHEY,CLEARFIELD
16844,JULIAN,CENTRE
16845,KARTHAUS,CLEARFIELD
16847,KYLERTOWN,CLEARFIELD
16848,LAMAR,CLINTON
16849,LANSE,CLEARFIELD
16838,GRAMPIAN,CLEARFIELD
16839,GRASSFLAT,CLEARFIELD
16840,HAWK RUN,CLEARFIELD
16841,HOWARD,CENTRE
16843,HYDE,CLEARFIELD
16850,LECONTES MILLS,CLEARFIELD
16851,LEMONT,CENTRE
16852,MADISONBURG,CENTRE
16853,MILESBURG,CENTRE
16859,MOSHANNON,CENTRE
16860,MUNSON,CLEARFIELD
16861,NEW MILLPORT,CLEARFIELD
16863,OLANTA,CLEARFIELD
16864,ORVISTON,CENTRE
16870,PORT MATILDA,CENTRE
16871,POTTERSDALE,CLEARFIELD
16872,REBERSBURG,CENTRE
16873,SHAWVILLE,CLEARFIELD
16874,SNOW SHOE,CENTRE
16881,WOODLAND,CLEARFIELD
16882,WOODWARD,CENTRE
16915,COUDERSPORT,POTTER
16854,MILLHEIM,CENTRE
16855,MINERAL SPRINGS,CLEARFIELD
16856,MINGOVILLE,CENTRE
16858,MORRISDALE,CLEARFIELD
16865,PENNSYLVANIA FURNACE,CENTRE
16866,PHILIPSBURG,CENTRE
16868,PINE GROVE MILLS,CENTRE
16875,SPRING MILLS,CENTRE
16876,WALLACETON,CLEARFIELD
16877,WARRIORS MARK,HUNTINGDON
16878,WEST DECATUR,CLEARFIELD
16879,WINBURNE,CLEARFIELD
16901,WELLSBORO,TIOGA
16910,ALBA,BRADFORD
16911,ARNOT,TIOGA
16912,BLOSSBURG,TIOGA
16914,COLUMBIA CROSS ROADS,BRADFORD
16917,COVINGTON,TIOGA
16920,ELKLAND,TIOGA
16922,GALETON,POTTER
16921,GAINES,TIOGA
16923,GENESEE,POTTER
16926,GRANVILLE SUMMIT,BRADFORD
16928,KNOXVILLE,TIOGA
16929,LAWRENCEVILLE,TIOGA
16930,LIBERTY,TIOGA
16932,MAINESBURG,TIOGA
16933,MANSFIELD,TIOGA
16936,MILLERTON,TIOGA
16937,MILLS,POTTER
16925,GILLETT,BRADFORD
16927,HARRISON VALLEY,POTTER
16935,MIDDLEBURY CENTER,TIOGA
16938,MORRIS,TIOGA
16939,MORRIS RUN,TIOGA
16945,SYLVANIA,BRADFORD
16946,TIOGA,TIOGA
16947,TROY,BRADFORD
16950,WESTFIELD,TIOGA
17003,ANNVILLE,LEBANON
16940,NELSON,TIOGA
16941,GENESEE,POTTER
16942,OSCEOLA,TIOGA
16943,SABINSVILLE,TIOGA
16948,ULYSSES,POTTER
17001,CAMP HILL,CUMBERLAND
17002,ALLENSVILLE,MIFFLIN
17007,BOILING SPRINGS,CUMBERLAND
17009,BURNHAM,MIFFLIN
17012,CAMP HILL,CUMBERLAND
17013,CARLISLE,CUMBERLAND
17014,COCOLAMUS,JUNIATA
17017,DALMATIA,NORTHUMBERLAND
17018,DAUPHIN,DAUPHIN
17004,BELLEVILLE,MIFFLIN
17005,BERRYSBURG,DAUPHIN
17006,BLAIN,PERRY
17010,CAMPBELLTOWN,LEBANON
17011,CAMP HILL,CUMBERLAND
17015,CARLISLE,CUMBERLAND
17016,CORNWALL,LEBANON
17019,DILLSBURG,YORK
17020,DUNCANNON,PERRY
17022,ELIZABETHTOWN,LANCASTER
17025,ENOLA,CUMBERLAND
17026,FREDERICKSBURG,LEBANON
17027,GRANTHAM,CUMBERLAND
17021,EAST WATERFORD,JUNIATA
17023,ELIZABETHVILLE,DAUPHIN
17024,ELLIOTTSBURG,PERRY
17028,GRANTVILLE,DAUPHIN
17032,HALIFAX,DAUPHIN
17033,HERSHEY,DAUPHIN
17036,HUMMELSTOWN,DAUPHIN
17039,KLEINFELTERSVILLE,LEBANON
17029,GRANVILLE,MIFFLIN
17030,GRATZ,DAUPHIN
17034,HIGHSPIRE,DAUPHIN
17035,HONEY GROVE,JUNIATA
17037,ICKESBURG,PERRY
17038,JONESTOWN,LEBANON
17040,LANDISBURG,PERRY
17041,LAWN,LEBANON
17042,LEBANON,LEBANON
17043,LEMOYNE,CUMBERLAND
17044,LEWISTOWN,MIFFLIN
17047,LOYSVILLE,PERRY
17049,MC ALISTERVILLE,JUNIATA
17045,LIVERPOOL,PERRY
17046,LEBANON,LEBANON
17048,LYKENS,DAUPHIN
17050,MECHANICSBURG,CUMBERLAND
17051,MC VEYTOWN,MIFFLIN
17052,MAPLETON DEPOT,HUNTINGDON
17053,MARYSVILLE,PERRY
17054,MATTAWANA,MIFFLIN
17055,MECHANICSBURG,CUMBERLAND
17056,MEXICO,JUNIATA
17058,MIFFLIN,JUNIATA
17059,MIFFLINTOWN,JUNIATA
17060,MILL CREEK,HUNTINGDON
17057,MIDDLETOWN,DAUPHIN
17061,MILLERSBURG,DAUPHIN
17063,MILROY,MIFFLIN
17065,MOUNT HOLLY SPRINGS,CUMBERLAND
17068,NEW BLOOMFIELD,PERRY
17070,NEW CUMBERLAND,CUMBERLAND
17062,MILLERSTOWN,PERRY
17064,MOUNT GRETNA,LEBANON
17066,MOUNT UNION,HUNTINGDON
17067,MYERSTOWN,LEBANON
17069,NEW BUFFALO,PERRY
17071,NEW GERMANTOWN,PERRY
17072,NEW KINGSTOWN,CUMBERLAND
17073,NEWMANSTOWN,LEBANON
17075,NEWTON HAMILTON,MIFFLIN
17074,NEWPORT,PERRY
17076,OAKLAND MILLS,JUNIATA
17077,ONO,LEBANON
17078,PALMYRA,LEBANON
17082,PORT ROYAL,JUNIATA
17083,QUENTIN,LEBANON
17084,REEDSVILLE,MIFFLIN
17087,RICHLAND,LEBANON
17088,SCHAEFFERSTOWN,LEBANON
17094,THOMPSONTOWN,JUNIATA
17097,WICONISCO,DAUPHIN
17102,HARRISBURG,DAUPHIN
17080,PILLOW,DAUPHIN
17081,PLAINFIELD,CUMBERLAND
17085,REXMONT,LEBANON
17086,RICHFIELD,JUNIATA
17089,CAMP HILL,CUMBERLAND
17090,SHERMANS DALE,PERRY
17093,SUMMERDALE,CUMBERLAND
17098,WILLIAMSTOWN,DAUPHIN
17099,YEAGERTOWN,MIFFLIN
17101,HARRISBURG,DAUPHIN
17103,HARRISBURG,DAUPHIN
17104,HARRISBURG,DAUPHIN
17105,HARRISBURG,DAUPHIN
17108,HARRISBURG,DAUPHIN
17109,HARRISBURG,DAUPHIN
17111,HARRISBURG,DAUPHIN
17112,HARRISBURG,DAUPHIN
17120,HARRISBURG,DAUPHIN
17121,HARRISBURG,DAUPHIN
17106,HARRISBURG,DAUPHIN
17107,HARRISBURG,DAUPHIN
17110,HARRISBURG,DAUPHIN
17113,HARRISBURG,DAUPHIN
17122,HARRISBURG,DAUPHIN
17123,HARRISBURG,DAUPHIN
17125,HARRISBURG,DAUPHIN
17126,HARRISBURG,DAUPHIN
17129,HARRISBURG,DAUPHIN
17130,HARRISBURG,DAUPHIN
17177,HARRISBURG,DAUPHIN
17201,CHAMBERSBURG,FRANKLIN
17124,HARRISBURG,DAUPHIN
17127,HARRISBURG,DAUPHIN
17128,HARRISBURG,DAUPHIN
17140,HARRISBURG,DAUPHIN
17202,CHAMBERSBURG,FRANKLIN
17212,BIG COVE TANNERY,FULTON
17215,BURNT CABINS,FULTON
17217,CONCORD,FRANKLIN
17219,DOYLESBURG,FRANKLIN
17210,AMBERSON,FRANKLIN
17211,ARTEMAS,BEDFORD
17213,BLAIRS MILLS,HUNTINGDON
17214,BLUE RIDGE SUMMIT,FRANKLIN
17220,DRY RUN,FRANKLIN
17221,FANNETTSBURG,FRANKLIN
17222,FAYETTEVILLE,FRANKLIN
17223,FORT LITTLETON,FULTON
17228,HARRISONVILLE,FULTON
17229,HUSTONTOWN,FULTON
17233,MC CONNELLSBURG,FULTON
17235,MARION,FRANKLIN
17224,FORT LOUDON,FRANKLIN
17225,GREENCASTLE,FRANKLIN
17231,LEMASTERS,FRANKLIN
17232,LURGAN,FRANKLIN
17236,MERCERSBURG,FRANKLIN
17237,MONT ALTO,FRANKLIN
17238,NEEDMORE,FULTON
17243,ORBISONIA,HUNTINGDON
17250,ROUZERVILLE,FRANKLIN
17251,ROXBURY,FRANKLIN
17252,SAINT THOMAS,FRANKLIN
17239,NEELYTON,HUNTINGDON
17240,NEWBURG,CUMBERLAND
17241,NEWVILLE,CUMBERLAND
17244,ORRSTOWN,FRANKLIN
17246,PLEASANT HALL,FRANKLIN
17247,QUINCY,FRANKLIN
17249,ROCKHILL FURNACE,HUNTINGDON
17253,SALTILLO,HUNTINGDON
17254,SCOTLAND,FRANKLIN
17255,SHADE GAP,HUNTINGDON
17256,SHADY GROVE,FRANKLIN
17262,SPRING RUN,FRANKLIN
17263,STATE LINE,FRANKLIN
17264,THREE SPRINGS,HUNTINGDON
17266,WALNUT BOTTOM,CUMBERLAND
17267,WARFORDSBURG,FULTON
17257,SHIPPENSBURG,CUMBERLAND
17260,SHIRLEYSBURG,HUNTINGDON
17261,SOUTH MOUNTAIN,FRANKLIN
17265,UPPERSTRASBURG,FRANKLIN
17302,AIRVILLE,YORK
17307,BIGLERVILLE,ADAMS
17312,CRALEY,YORK
17313,DALLASTOWN,YORK
17268,WAYNESBORO,FRANKLIN
17271,WILLOW HILL,FRANKLIN
17272,ZULLINGER,FRANKLIN
17301,ABBOTTSTOWN,ADAMS
17303,ARENDTSVILLE,ADAMS
17304,ASPERS,ADAMS
17306,BENDERSVILLE,ADAMS
17309,BROGUE,YORK
17310,CASHTOWN,ADAMS
17311,CODORUS,YORK
17314,DELTA,YORK
17315,DOVER,YORK
17316,EAST BERLIN,ADAMS
17317,EAST PROSPECT,YORK
17320,FAIRFIELD,ADAMS
17323,FRANKLINTOWN,YORK
17318,EMIGSVILLE,YORK
17319,ETTERS,YORK
17321,FAWN GROVE,YORK
17322,FELTON,YORK
17324,GARDNERS,ADAMS
17329,GLENVILLE,YORK
17331,HANOVER,YORK
17334,HANOVER,YORK
17335,HANOVER,YORK
17337,IDAVILLE,ADAMS
17340,LITTLESTOWN,ADAMS
17342,LOGANVILLE,YORK
17343,MC KNIGHTSTOWN,ADAMS
17325,GETTYSBURG,ADAMS
17327,GLEN ROCK,YORK
17332,HANOVER,YORK
17333,HANOVER,YORK
17339,LEWISBERRY,YORK
17344,MC SHERRYSTOWN,ADAMS
17345,MANCHESTER,YORK
17350,NEW OXFORD,ADAMS
17352,NEW PARK,YORK
17353,ORRTANNA,ADAMS
17356,RED LION,YORK
17347,MOUNT WOLF,YORK
17349,NEW FREEDOM,YORK
17354,PORTERS SIDELING,YORK
17355,RAILROAD,YORK
17358,ROSSVILLE,YORK
17360,SEVEN VALLEYS,YORK
17361,SHREWSBURY,YORK
17364,THOMASVILLE,YORK
17365,WELLSVILLE,YORK
17366,WINDSOR,YORK
17368,WRIGHTSVILLE,YORK
17372,YORK SPRINGS,ADAMS
17375,PEACH GLEN,ADAMS
17401,YORK,YORK
17404,YORK,YORK
17407,YORK,YORK
17362,SPRING GROVE,YORK
17363,STEWARTSTOWN,YORK
17370,YORK HAVEN,YORK
17371,YORK NEW SALEM,YORK
17402,YORK,YORK
17403,YORK,YORK
17405,YORK,YORK
17406,YORK,YORK
17408,YORK,YORK
17503,BART,LANCASTER
17504,BAUSMAN,LANCASTER
17505,BIRD IN HAND,LANCASTER
17509,CHRISTIANA,LANCASTER
17512,COLUMBIA,LANCASTER
17415,YORK,YORK
17501,AKRON,LANCASTER
17502,BAINBRIDGE,LANCASTER
17506,BLUE BALL,LANCASTER
17507,BOWMANSVILLE,LANCASTER
17508,BROWNSTOWN,LANCASTER
17516,CONESTOGA,LANCASTER
17519,EAST EARL,LANCASTER
17520,EAST PETERSBURG,LANCASTER
17522,EPHRATA,LANCASTER
17532,HOLTWOOD,LANCASTER
17533,HOPELAND,LANCASTER
17534,INTERCOURSE,LANCASTER
17537,LAMPETER,LANCASTER
17538,LANDISVILLE,LANCASTER
17540,LEOLA,LANCASTER
17517,DENVER,LANCASTER
17518,DRUMORE,LANCASTER
17521,ELM,LANCASTER
17527,GAP,LANCASTER
17528,GOODVILLE,LANCASTER
17529,GORDONVILLE,LANCASTER
17535,KINZERS,LANCASTER
17536,KIRKWOOD,LANCASTER
17549,MARTINDALE,LANCASTER
17550,MAYTOWN,LANCASTER
17551,MILLERSVILLE,LANCASTER
17554,MOUNTVILLE,LANCASTER
17555,NARVON,LANCASTER
17543,LITITZ,LANCASTER
17545,MANHEIM,LANCASTER
17547,MARIETTA,LANCASTER
17552,MOUNT JOY,LANCASTER
17557,NEW HOLLAND,LANCASTER
17562,PARADISE,LANCASTER
17566,QUARRYVILLE,LANCASTER
17570,RHEEMS,LANCASTER
17572,RONKS,LANCASTER
17560,NEW PROVIDENCE,LANCASTER
17563,PEACH BOTTOM,LANCASTER
17564,PENRYN,LANCASTER
17565,PEQUEA,LANCASTER
17567,REAMSTOWN,LANCASTER
17568,REFTON,LANCASTER
17569,REINHOLDS,LANCASTER
17573,LANCASTER,LANCASTER
17575,SILVER SPRING,LANCASTER
17579,STRASBURG,LANCASTER
17580,TALMAGE,LANCASTER
17581,TERRE HILL,LANCASTER
17584,WILLOW STREET,LANCASTER
17601,LANCASTER,LANCASTER
17576,SMOKETOWN,LANCASTER
17578,STEVENS,LANCASTER
17582,WASHINGTON BORO,LANCASTER
17583,WEST WILLOW,LANCASTER
17585,WITMER,LANCASTER
17602,LANCASTER,LANCASTER
17604,LANCASTER,LANCASTER
17605,LANCASTER,LANCASTER
17606,LANCASTER,LANCASTER
17699,LANCASTER,LANCASTER
17702,WILLIAMSPORT,LYCOMING
17603,LANCASTER,LANCASTER
17607,LANCASTER,LANCASTER
17608,LANCASTER,LANCASTER
17611,LANCASTER,LANCASTER
17622,LANCASTER,LANCASTER
17701,WILLIAMSPORT,LYCOMING
17703,WILLIAMSPORT,LYCOMING
17723,CAMMAL,LYCOMING
17726,CASTANEA,CLINTON
17727,CEDAR RUN,LYCOMING
17705,WILLIAMSPORT,LYCOMING
17720,ANTES FORT,LYCOMING
17721,AVIS,CLINTON
17724,CANTON,BRADFORD
17728,COGAN STATION,LYCOMING
17729,CROSS FORK,POTTER
17730,DEWART,NORTHUMBERLAND
17731,EAGLES MERE,SULLIVAN
17735,GROVER,BRADFORD
17739,JERSEY MILLS,LYCOMING
17742,LAIRDSVILLE,LYCOMING
17747,LOGANTON,CLINTON
17748,MC ELHATTAN,CLINTON
17737,HUGHESVILLE,LYCOMING
17740,JERSEY SHORE,LYCOMING
17744,LINDEN,LYCOMING
17745,LOCK HAVEN,CLINTON
17749,MC EWENSVILLE,NORTHUMBERLAND
17750,MACKEYVILLE,CLINTON
17752,MONTGOMERY,LYCOMING
17758,MUNCY VALLEY,SULLIVAN
17751,MILL HALL,CLINTON
17754,MONTOURSVILLE,LYCOMING
17756,MUNCY,LYCOMING
17764,RENOVO,CLINTON
17765,ROARING BRANCH,TIOGA
17767,SALONA,CLINTON
17768,SHUNK,SULLIVAN
17774,UNITYVILLE,LYCOMING
17760,NORTH BEND,CLINTON
17762,PICTURE ROCKS,LYCOMING
17763,RALSTON,LYCOMING
17769,SLATE RUN,LYCOMING
17771,TROUT RUN,LYCOMING
17772,TURBOTVILLE,NORTHUMBERLAND
17776,WATERVILLE,LYCOMING
17778,WESTPORT,CLINTON
17801,SUNBURY,NORTHUMBERLAND
17810,ALLENWOOD,UNION
17777,WATSONTOWN,NORTHUMBERLAND
17779,WOOLRICH,CLINTON
17812,BEAVER SPRINGS,SNYDER
17814,BENTON,COLUMBIA
17815,BLOOMSBURG,COLUMBIA
17820,CATAWISSA,COLUMBIA
17822,DANVILLE,MONTOUR
17813,BEAVERTOWN,SNYDER
17821,DANVILLE,MONTOUR
17823,DORNSIFE,NORTHUMBERLAND
17827,FREEBURG,SNYDER
17829,HARTLETON,UNION
17833,KREAMER,SNYDER
17834,KULPMONT,NORTHUMBERLAND
17835,LAURELTON,UNION
17824,ELYSBURG,NORTHUMBERLAND
17830,HERNDON,NORTHUMBERLAND
17831,HUMMELS WHARF,SNYDER
17832,MARION HEIGHTS,NORTHUMBERLAND
17836,LECK KILL,NORTHUMBERLAND
17837,LEWISBURG,UNION
17842,MIDDLEBURG,SNYDER
17843,BEAVER SPRINGS,SNYDER
17844,MIFFLINBURG,UNION
17846,MILLVILLE,COLUMBIA
17839,LIGHTSTREET,COLUMBIA
17840,LOCUST GAP,NORTHUMBERLAND
17841,MC CLURE,MIFFLIN
17845,MILLMONT,UNION
17847,MILTON,NORTHUMBERLAND
17850,MONTANDON,NORTHUMBERLAND
17851,MOUNT CARMEL,NORTHUMBERLAND
17855,NEW BERLIN,UNION
17856,NEW COLUMBIA,UNION
17857,NORTHUMBERLAND,NORTHUMBERLAND
17853,MOUNT PLEASANT MILLS,SNYDER
17858,NUMIDIA,COLUMBIA
17860,PAXINOS,NORTHUMBERLAND
17861,PAXTONVILLE,SNYDER
17862,PENNS CREEK,SNYDER
17865,POTTS GROVE,NORTHUMBERLAND
17866,COAL TOWNSHIP,NORTHUMBERLAND
17870,SELINSGROVE,SNYDER
17859,ORANGEVILLE,COLUMBIA
17864,PORT TREVORTON,SNYDER
17867,REBUCK,NORTHUMBERLAND
17868,RIVERSIDE,NORTHUMBERLAND
17872,SHAMOKIN,NORTHUMBERLAND
17882,TROXELVILLE,SNYDER
17883,VICKSBURG,UNION
17884,WASHINGTONVILLE,MONTOUR
17885,WEIKERT,UNION
17887,WHITE DEER,UNION
17888,WILBURTON,COLUMBIA
17889,WINFIELD,UNION
17876,SHAMOKIN DAM,SNYDER
17877,SNYDERTOWN,NORTHUMBERLAND
17878,STILLWATER,COLUMBIA
17880,SWENGEL,UNION
17881,TREVORTON,NORTHUMBERLAND
17886,WEST MILTON,UNION
17901,POTTSVILLE,SCHUYLKILL
17921,ASHLAND,SCHUYLKILL
17923,BRANCHDALE,SCHUYLKILL
17925,BROCKTON,SCHUYLKILL
17931,FRACKVILLE,SCHUYLKILL
17932,FRACKVILLE,SCHUYLKILL
17935,GIRARDVILLE,SCHUYLKILL
17936,GORDON,SCHUYLKILL
17920,ARISTES,COLUMBIA
17922,AUBURN,SCHUYLKILL
17929,CRESSONA,SCHUYLKILL
17930,CUMBOLA,SCHUYLKILL
17933,FRIEDENSBURG,SCHUYLKILL
17934,GILBERTON,SCHUYLKILL
17938,HEGINS,SCHUYLKILL
17941,KLINGERSTOWN,SCHUYLKILL
17946,LOST CREEK,SCHUYLKILL
17948,MAHANOY CITY,SCHUYLKILL
17943,LAVELLE,SCHUYLKILL
17944,LLEWELLYN,SCHUYLKILL
17945,LOCUSTDALE,SCHUYLKILL
17949,MAHANOY PLANE,SCHUYLKILL
17951,MAR LIN,SCHUYLKILL
17952,MARY D,SCHUYLKILL
17960,NEW RINGGOLD,SCHUYLKILL
17966,RAVINE,SCHUYLKILL
17967,RINGTOWN,SCHUYLKILL
17968,SACRAMENTO,SCHUYLKILL
17953,MIDDLEPORT,SCHUYLKILL
17954,MINERSVILLE,SCHUYLKILL
17957,MUIR,SCHUYLKILL
17959,NEW PHILADELPHIA,SCHUYLKILL
17961,ORWIGSBURG,SCHUYLKILL
17963,PINE GROVE,SCHUYLKILL
17964,PITMAN,SCHUYLKILL
17965,PORT CARBON,SCHUYLKILL
17970,SAINT CLAIR,SCHUYLKILL
17974,SELTZER,SCHUYLKILL
17976,SHENANDOAH,SCHUYLKILL
17978,SPRING GLEN,SCHUYLKILL
17980,TOWER CITY,SCHUYLKILL
17981,TREMONT,SCHUYLKILL
17972,SCHUYLKILL HAVEN,SCHUYLKILL
17979,SUMMIT STATION,SCHUYLKILL
17982,TUSCARORA,SCHUYLKILL
17983,VALLEY VIEW,SCHUYLKILL
17985,ZION GROVE,SCHUYLKILL
18001,LEHIGH VALLEY,NORTHAMPTON
18002,LEHIGH VALLEY,NORTHAMPTON
18012,AQUASHICOLA,CARBON
18013,BANGOR,NORTHAMPTON
18018,BETHLEHEM,NORTHAMPTON
18020,BETHLEHEM,NORTHAMPTON
18025,BETHLEHEM,LEHIGH
18035,CHERRYVILLE,NORTHAMPTON
18036,COOPERSBURG,LEHIGH
18037,COPLAY,LEHIGH
18038,DANIELSVILLE,NORTHAMPTON
18003,LEHIGH VALLEY,NORTHAMPTON
18010,ACKERMANVILLE,NORTHAMPTON
18011,ALBURTIS,LEHIGH
18014,BATH,NORTHAMPTON
18015,BETHLEHEM,NORTHAMPTON
18016,BETHLEHEM,NORTHAMPTON
18017,BETHLEHEM,NORTHAMPTON
18030,BOWMANSTOWN,CARBON
18031,BREINIGSVILLE,LEHIGH
18032,CATASAUQUA,LEHIGH
18034,CENTER VALLEY,LEHIGH
18039,DURHAM,BUCKS
18040,EASTON,NORTHAMPTON
18042,EASTON,NORTHAMPTON
18045,EASTON,NORTHAMPTON
18046,EAST TEXAS,LEHIGH
18049,EMMAUS,LEHIGH
18054,GREEN LANE,MONTGOMERY
18055,HELLERTOWN,NORTHAMPTON
18056,HEREFORD,BERKS
18058,KUNKLETOWN,MONROE
18041,EAST GREENVILLE,MONTGOMERY
18043,EASTON,NORTHAMPTON
18044,EASTON,NORTHAMPTON
18050,FLICKSVILLE,NORTHAMPTON
18051,FOGELSVILLE,LEHIGH
18052,WHITEHALL,LEHIGH
18053,GERMANSVILLE,LEHIGH
18059,LAURYS STATION,LEHIGH
18060,LIMEPORT,LEHIGH
18062,MACUNGIE,LEHIGH
18063,MARTINS CREEK,NORTHAMPTON
18069,OREFIELD,LEHIGH
18070,PALM,MONTGOMERY
18071,PALMERTON,CARBON
18076,RED HILL,MONTGOMERY
18077,RIEGELSVILLE,BUCKS
18078,SCHNECKSVILLE,LEHIGH
18083,STOCKERTOWN,NORTHAMPTON
18084,SUMNEYTOWN,MONTGOMERY
18085,TATAMY,NORTHAMPTON
18086,TREICHLERS,NORTHAMPTON
18098,EMMAUS,LEHIGH
18099,EMMAUS,LEHIGH
18101,ALLENTOWN,LEHIGH
18064,NAZARETH,NORTHAMPTON
18065,NEFFS,LEHIGH
18066,NEW TRIPOLI,LEHIGH
18067,NORTHAMPTON,NORTHAMPTON
18068,OLD ZIONSVILLE,LEHIGH
18072,PEN ARGYL,NORTHAMPTON
18073,PENNSBURG,MONTGOMERY
18074,PERKIOMENVILLE,MONTGOMERY
18079,SLATEDALE,LEHIGH
18080,SLATINGTON,LEHIGH
18081,SPRINGTOWN,BUCKS
18087,TREXLERTOWN,LEHIGH
18088,WALNUTPORT,NORTHAMPTON
18091,WIND GAP,NORTHAMPTON
18092,ZIONSVILLE,LEHIGH
18102,ALLENTOWN,LEHIGH
18103,ALLENTOWN,LEHIGH
18104,ALLENTOWN,LEHIGH
18105,ALLENTOWN,LEHIGH
18202,HAZLETON,LUZERNE
18211,ANDREAS,SCHUYLKILL
18212,ASHFIELD,CARBON
18214,BARNESVILLE,SCHUYLKILL
18221,DRIFTON,LUZERNE
18222,DRUMS,LUZERNE
18223,EBERVALE,LUZERNE
18224,FREELAND,LUZERNE
18225,HARLEIGH,LUZERNE
18106,ALLENTOWN,LEHIGH
18109,ALLENTOWN,LEHIGH
18195,ALLENTOWN,LEHIGH
18201,HAZLETON,LUZERNE
18210,ALBRIGHTSVILLE,CARBON
18216,BEAVER MEADOWS,CARBON
18218,COALDALE,SCHUYLKILL
18219,CONYNGHAM,LUZERNE
18220,DELANO,SCHUYLKILL
18229,JIM THORPE,CARBON
18230,JUNEDALE,CARBON
18231,KELAYRES,SCHUYLKILL
18232,LANSFORD,CARBON
18234,LATTIMER MINES,LUZERNE
18237,MCADOO,SCHUYLKILL
18239,MILNESVILLE,LUZERNE
18240,NESQUEHONING,CARBON
18241,NUREMBERG,SCHUYLKILL
18247,SAINT JOHNS,LUZERNE
18248,SHEPPTON,SCHUYLKILL
18249,SUGARLOAF,LUZERNE
18250,SUMMIT HILL,CARBON
18251,SYBERTSVILLE,LUZERNE
18301,EAST STROUDSBURG,MONROE
18323,BUCK HILL FALLS,MONROE
18324,BUSHKILL,PIKE
18235,LEHIGHTON,CARBON
18242,ONEIDA,SCHUYLKILL
18244,PARRYVILLE,CARBON
18245,QUAKAKE,SCHUYLKILL
18246,ROCK GLEN,LUZERNE
18252,TAMAQUA,SCHUYLKILL
18254,TRESCKOW,CARBON
18255,WEATHERLY,CARBON
18256,WESTON,LUZERNE
18302,EAST STROUDSBURG,MONROE
18320,ANALOMINK,MONROE
18321,BARTONSVILLE,MONROE
18322,BRODHEADSVILLE,MONROE
18325,CANADENSIS,MONROE
18326,CRESCO,MONROE
18330,EFFORT,MONROE
18336,MATAMORAS,PIKE
18337,MILFORD,PIKE
18340,MILLRIFT,PIKE
18343,MOUNT BETHEL,NORTHAMPTON
18344,MOUNT POCONO,MONROE
18346,POCONO SUMMIT,MONROE
18347,POCONO LAKE,MONROE
18327,DELAWARE WATER GAP,MONROE
18328,DINGMANS FERRY,PIKE
18331,GILBERT,MONROE
18332,HENRYVILLE,MONROE
18333,KRESGEVILLE,MONROE
18334,LONG POND,MONROE
18335,MARSHALLS CREEK,MONROE
18341,MINISINK HILLS,MONROE
18342,MOUNTAINHOME,MONROE
18348,POCONO LAKE PRESERVE,MONROE
18349,POCONO MANOR,MONROE
18350,POCONO PINES,MONROE
18351,PORTLAND,NORTHAMPTON
18356,SHAWNEE ON DELAWARE,MONROE
18357,SKYTOP,MONROE
18360,STROUDSBURG,MONROE
18370,SWIFTWATER,MONROE
18373,UNITY HOUSE,PIKE
18403,ARCHBALD,LACKAWANNA
18405,BEACH LAKE,WAYNE
18407,CARBONDALE,LACKAWANNA
18410,CHINCHILLA,LACKAWANNA
18352,REEDERS,MONROE
18353,SAYLORSBURG,MONROE
18354,SCIOTA,MONROE
18355,SCOTRUN,MONROE
18371,TAMIMENT,PIKE
18372,TANNERSVILLE,MONROE
18411,CLARKS SUMMIT,LACKAWANNA
18415,DAMASCUS,WAYNE
18416,ELMHURST,LACKAWANNA
18417,EQUINUNK,WAYNE
18421,FOREST CITY,SUSQUEHANNA
18425,GREELEY,PIKE
18426,GREENTOWN,PIKE
18427,HAMLIN,WAYNE
18431,HONESDALE,WAYNE
18433,JERMYN,LACKAWANNA
18413,CLIFFORD,SUSQUEHANNA
18414,DALTON,LACKAWANNA
18419,FACTORYVILLE,WYOMING
18420,FLEETVILLE,LACKAWANNA
18424,GOULDSBORO,WAYNE
18428,HAWLEY,PIKE
18430,HERRICK CENTER,SUSQUEHANNA
18434,JESSUP,LACKAWANNA
18435,LACKAWAXEN,PIKE
18436,LAKE ARIEL,WAYNE
18437,LAKE COMO,WAYNE
18438,LAKEVILLE,WAYNE
18439,LAKEWOOD,WAYNE
18443,MILANVILLE,WAYNE
18444,MOSCOW,LACKAWANNA
18445,NEWFOUNDLAND,WAYNE
18440,LA PLUME,LACKAWANNA
18441,LENOXVILLE,SUSQUEHANNA
18446,NICHOLSON,WYOMING
18447,OLYPHANT,LACKAWANNA
18449,ORSON,WAYNE
18451,PAUPACK,PIKE
18452,PECKVILLE,LACKAWANNA
18458,SHOHOLA,PIKE
18459,SOUTH CANAAN,WAYNE
18460,SOUTH STERLING,WAYNE
18461,STARLIGHT,WAYNE
18469,TYLER HILL,WAYNE
18470,UNION DALE,SUSQUEHANNA
18502,SCRANTON,LACKAWANNA
18503,SCRANTON,LACKAWANNA
18504,SCRANTON,LACKAWANNA
18505,SCRANTON,LACKAWANNA
18507,MOOSIC,LACKAWANNA
18508,SCRANTON,LACKAWANNA
18509,SCRANTON,LACKAWANNA
18448,OLYPHANT,LACKAWANNA
18453,PLEASANT MOUNT,WAYNE
18454,POYNTELLE,WAYNE
18455,PRESTON PARK,WAYNE
18456,PROMPTON,WAYNE
18457,ROWLAND,PIKE
18462,STARRUCCA,WAYNE
18463,STERLING,WAYNE
18464,TAFTON,PIKE
18465,THOMPSON,SUSQUEHANNA
18466,TOBYHANNA,MONROE
18471,WAVERLY,LACKAWANNA
18472,WAYMART,WAYNE
18473,WHITE MILLS,WAYNE
18501,SCRANTON,LACKAWANNA
18510,SCRANTON,LACKAWANNA
18512,SCRANTON,LACKAWANNA
18518,OLD FORGE,LACKAWANNA
18519,SCRANTON,LACKAWANNA
18540,SCRANTON,LACKAWANNA
18610,BLAKESLEE,MONROE
18611,CAMBRA,LUZERNE
18612,DALLAS,LUZERNE
18615,FALLS,WYOMING
18616,FORKSVILLE,SULLIVAN
18617,GLEN LYON,LUZERNE
18618,HARVEYS LAKE,LUZERNE
18515,SCRANTON,LACKAWANNA
18517,TAYLOR,LACKAWANNA
18577,SCRANTON,LACKAWANNA
18601,BEACH HAVEN,LUZERNE
18602,BEAR CREEK,LUZERNE
18603,BERWICK,COLUMBIA
18614,DUSHORE,SULLIVAN
18619,HILLSGROVE,SULLIVAN
18621,HUNLOCK CREEK,LUZERNE
18625,LAKE WINOLA,WYOMING
18626,LAPORTE,SULLIVAN
18627,LEHMAN,LUZERNE
18628,LOPEZ,SULLIVAN
18629,MEHOOPANY,WYOMING
18630,MESHOPPEN,WYOMING
18631,MIFFLINVILLE,COLUMBIA
18632,MILDRED,SULLIVAN
18636,NOXEN,WYOMING
18640,PITTSTON,LUZERNE
18641,PITTSTON,LUZERNE
18622,HUNTINGTON MILLS,LUZERNE
18623,LACEYVILLE,WYOMING
18624,LAKE HARMONY,CARBON
18634,NANTICOKE,LUZERNE
18635,NESCOPECK,LUZERNE
18642,DURYEA,LUZERNE
18643,PITTSTON,LUZERNE
18651,PLYMOUTH,LUZERNE
18653,RANSOM,LACKAWANNA
18654,SHAWANESE,LUZERNE
18655,SHICKSHINNY,LUZERNE
18660,WAPWALLOPEN,LUZERNE
18702,WILKES BARRE,LUZERNE
18703,WILKES BARRE,LUZERNE
18644,WYOMING,LUZERNE
18656,SWEET VALLEY,LUZERNE
18657,TUNKHANNOCK,WYOMING
18661,WHITE HAVEN,LUZERNE
18690,DALLAS,LUZERNE
18701,WILKES BARRE,LUZERNE
18704,KINGSTON,LUZERNE
18709,LUZERNE,LUZERNE
18710,WILKES BARRE,LUZERNE
18705,WILKES BARRE,LUZERNE
18706,WILKES BARRE,LUZERNE
18707,MOUNTAIN TOP,LUZERNE
18708,SHAVERTOWN,LUZERNE
18711,WILKES BARRE,LUZERNE
18762,WILKES BARRE,LUZERNE
18764,WILKES BARRE,LUZERNE
18765,WILKES BARRE,LUZERNE
18766,WILKES BARRE,LUZERNE
18801,MONTROSE,SUSQUEHANNA
18810,ATHENS,BRADFORD
18812,BRACKNEY,SUSQUEHANNA
18813,BROOKLYN,SUSQUEHANNA
18814,BURLINGTON,BRADFORD
18815,CAMPTOWN,BRADFORD
18821,GREAT BEND,SUSQUEHANNA
18822,HALLSTEAD,SUSQUEHANNA
18823,HARFORD,SUSQUEHANNA
18824,HOP BOTTOM,SUSQUEHANNA
18825,JACKSON,SUSQUEHANNA
18826,KINGSLEY,SUSQUEHANNA
18830,LITTLE MEADOWS,SUSQUEHANNA
18831,MILAN,BRADFORD
18832,MONROETON,BRADFORD
18833,NEW ALBANY,BRADFORD
18767,WILKES BARRE,LUZERNE
18769,WILKES BARRE,LUZERNE
18773,WILKES BARRE,LUZERNE
18816,DIMOCK,SUSQUEHANNA
18817,EAST SMITHFIELD,BRADFORD
18818,FRIENDSVILLE,SUSQUEHANNA
18820,GIBSON,SUSQUEHANNA
18827,LANESBORO,SUSQUEHANNA
18828,LAWTON,SUSQUEHANNA
18829,LE RAYSVILLE,BRADFORD
18834,NEW MILFORD,SUSQUEHANNA
18837,ROME,BRADFORD
18840,SAYRE,BRADFORD
18846,SUGAR RUN,BRADFORD
18847,SUSQUEHANNA,SUSQUEHANNA
18848,TOWANDA,BRADFORD
18901,DOYLESTOWN,BUCKS
18902,DOYLESTOWN,BUCKS
18910,BEDMINSTER,BUCKS
18911,BLOOMING GLEN,BUCKS
18916,DANBORO,BUCKS
18917,DUBLIN,BUCKS
18918,EARLINGTON,MONTGOMERY
18920,ERWINNA,BUCKS
18925,FURLONG,BUCKS
18926,GARDENVILLE,BUCKS
18927,HILLTOWN,BUCKS
18928,HOLICONG,BUCKS
18842,SOUTH GIBSON,SUSQUEHANNA
18843,SOUTH MONTROSE,SUSQUEHANNA
18844,SPRINGVILLE,SUSQUEHANNA
18845,STEVENSVILLE,BRADFORD
18850,ULSTER,BRADFORD
18851,WARREN CENTER,BRADFORD
18853,WYALUSING,BRADFORD
18854,WYSOX,BRADFORD
18912,BUCKINGHAM,BUCKS
18913,CARVERSVILLE,BUCKS
18914,CHALFONT,BUCKS
18915,COLMAR,MONTGOMERY
18921,FERNDALE,BUCKS
18922,FOREST GROVE,BUCKS
18923,FOUNTAINVILLE,BUCKS
18924,FRANCONIA,MONTGOMERY
18929,JAMISON,BUCKS
18930,KINTNERSVILLE,BUCKS
18931,LAHASKA,BUCKS
18932,LINE LEXINGTON,BUCKS
18935,MILFORD SQUARE,BUCKS
18936,MONTGOMERYVILLE,MONTGOMERY
18942,OTTSVILLE,BUCKS
18949,PLUMSTEADVILLE,BUCKS
18950,POINT PLEASANT,BUCKS
18933,LUMBERVILLE,BUCKS
18934,MECHANICSVILLE,BUCKS
18938,NEW HOPE,BUCKS
18940,NEWTOWN,BUCKS
18943,PENNS PARK,BUCKS
18944,PERKASIE,BUCKS
18946,PINEVILLE,BUCKS
18947,PIPERSVILLE,BUCKS
18951,QUAKERTOWN,BUCKS
18953,REVERE,BUCKS
18954,RICHBORO,BUCKS
18960,SELLERSVILLE,BUCKS
18962,SILVERDALE,BUCKS
18963,SOLEBURY,BUCKS
18964,SOUDERTON,MONTGOMERY
18968,SPINNERSTOWN,BUCKS
18969,TELFORD,MONTGOMERY
18970,TRUMBAUERSVILLE,BUCKS
18974,WARMINSTER,BUCKS
18979,WOXALL,MONTGOMERY
18980,WYCOMBE,BUCKS
18981,ZIONHILL,BUCKS
18955,RICHLANDTOWN,BUCKS
18956,RUSHLAND,BUCKS
18957,SALFORD,MONTGOMERY
18958,SALFORDVILLE,MONTGOMERY
18966,SOUTHAMPTON,BUCKS
18971,TYLERSPORT,MONTGOMERY
18972,UPPER BLACK EDDY,BUCKS
18976,WARRINGTON,BUCKS
18977,WASHINGTON CROSSING,BUCKS
18991,WARMINSTER,BUCKS
19001,ABINGTON,MONTGOMERY
19002,AMBLER,MONTGOMERY
19004,BALA CYNWYD,MONTGOMERY
19008,BROOMALL,DELAWARE
19003,ARDMORE,MONTGOMERY
19006,HUNTINGDON VALLEY,MONTGOMERY
19007,BRISTOL,BUCKS
19009,BRYN ATHYN,MONTGOMERY
19013,CHESTER,DELAWARE
19014,ASTON,DELAWARE
19015,BROOKHAVEN,DELAWARE
19020,BENSALEM,BUCKS
19010,BRYN MAWR,DELAWARE
19012,CHELTENHAM,MONTGOMERY
19016,CHESTER,DELAWARE
19017,CHESTER HEIGHTS,DELAWARE
19018,CLIFTON HEIGHTS,DELAWARE
19019,PHILADELPHIA,PHILADELPHIA
19021,CROYDON,BUCKS
19023,DARBY,DELAWARE
19025,DRESHER,MONTGOMERY
19027,ELKINS PARK,MONTGOMERY
19022,CRUM LYNNE,DELAWARE
19026,DREXEL HILL,DELAWARE
19028,EDGEMONT,DELAWARE
19029,ESSINGTON,DELAWARE
19032,FOLCROFT,DELAWARE
19033,FOLSOM,DELAWARE
19036,GLENOLDEN,DELAWARE
19038,GLENSIDE,MONTGOMERY
19041,HAVERFORD,MONTGOMERY
19043,HOLMES,DELAWARE
19044,HORSHAM,MONTGOMERY
19046,JENKINTOWN,MONTGOMERY
19030,FAIRLESS HILLS,BUCKS
19031,FLOURTOWN,MONTGOMERY
19034,FORT WASHINGTON,MONTGOMERY
19035,GLADWYNE,MONTGOMERY
19037,GLEN RIDDLE LIMA,DELAWARE
19039,GRADYVILLE,DELAWARE
19040,HATBORO,MONTGOMERY
19048,FORT WASHINGTON,BUCKS
19050,LANSDOWNE,DELAWARE
19052,LENNI,DELAWARE
19047,LANGHORNE,BUCKS
19049,FORT WASHINGTON,BUCKS
19054,LEVITTOWN,BUCKS
19055,LEVITTOWN,BUCKS
19056,LEVITTOWN,BUCKS
19060,GARNET VALLEY,DELAWARE
19061,MARCUS HOOK,DELAWARE
19063,MEDIA,DELAWARE
19066,MERION STATION,MONTGOMERY
19053,FEASTERVILLE TREVOSE,BUCKS
19057,LEVITTOWN,BUCKS
19058,LEVITTOWN,BUCKS
19064,SPRINGFIELD,DELAWARE
19065,MEDIA,DELAWARE
19067,MORRISVILLE,BUCKS
19070,MORTON,DELAWARE
19073,NEWTOWN SQUARE,DELAWARE
19074,NORWOOD,DELAWARE
19075,ORELAND,MONTGOMERY
19076,PROSPECT PARK,DELAWARE
19078,RIDLEY PARK,DELAWARE
19079,SHARON HILL,DELAWARE
19072,NARBERTH,MONTGOMERY
19080,WAYNE,DELAWARE
19081,SWARTHMORE,DELAWARE
19082,UPPER DARBY,DELAWARE
19086,WALLINGFORD,DELAWARE
19087,WAYNE,DELAWARE
19090,WILLOW GROVE,MONTGOMERY
19091,MEDIA,DELAWARE
19094,WOODLYN,DELAWARE
19095,WYNCOTE,MONTGOMERY
19099,PHILADELPHIA,PHILADELPHIA
19101,PHILADELPHIA,PHILADELPHIA
19083,HAVERTOWN,DELAWARE
19085,VILLANOVA,DELAWARE
19088,WAYNE,DELAWARE
19089,WAYNE,DELAWARE
19092,PHILADELPHIA,PHILADELPHIA
19093,PHILADELPHIA,PHILADELPHIA
19096,WYNNEWOOD,MONTGOMERY
19098,HOLMES,DELAWARE
19102,PHILADELPHIA,PHILADELPHIA
19104,PHILADELPHIA,PHILADELPHIA
19107,PHILADELPHIA,PHILADELPHIA
19103,PHILADELPHIA,PHILADELPHIA
19105,PHILADELPHIA,PHILADELPHIA
19106,PHILADELPHIA,PHILADELPHIA
19108,PHILADELPHIA,PHILADELPHIA
19111,PHILADELPHIA,PHILADELPHIA
19113,PHILADELPHIA,DELAWARE
19114,PHILADELPHIA,PHILADELPHIA
19116,PHILADELPHIA,PHILADELPHIA
19118,PHILADELPHIA,PHILADELPHIA
19121,PHILADELPHIA,PHILADELPHIA
19122,PHILADELPHIA,PHILADELPHIA
19125,PHILADELPHIA,PHILADELPHIA
19109,PHILADELPHIA,PHILADELPHIA
19110,PHILADELPHIA,PHILADELPHIA
19112,PHILADELPHIA,PHILADELPHIA
19115,PHILADELPHIA,PHILADELPHIA
19119,PHILADELPHIA,PHILADELPHIA
19120,PHILADELPHIA,PHILADELPHIA
19123,PHILADELPHIA,PHILADELPHIA
19124,PHILADELPHIA,PHILADELPHIA
19126,PHILADELPHIA,PHILADELPHIA
19127,PHILADELPHIA,PHILADELPHIA
19130,PHILADELPHIA,PHILADELPHIA
19131,PHILADELPHIA,PHILADELPHIA
19134,PHILADELPHIA,PHILADELPHIA
19135,PHILADELPHIA,PHILADELPHIA
19128,PHILADELPHIA,PHILADELPHIA
19129,PHILADELPHIA,PHILADELPHIA
19132,PHILADELPHIA,PHILADELPHIA
19133,PHILADELPHIA,PHILADELPHIA
19136,PHILADELPHIA,PHILADELPHIA
19137,PHILADELPHIA,PHILADELPHIA
19140,PHILADELPHIA,PHILADELPHIA
19141,PHILADELPHIA,PHILADELPHIA
19144,PHILADELPHIA,PHILADELPHIA
19145,PHILADELPHIA,PHILADELPHIA
19146,PHILADELPHIA,PHILADELPHIA
19147,PHILADELPHIA,PHILADELPHIA
19149,PHILADELPHIA,PHILADELPHIA
19150,PHILADELPHIA,PHILADELPHIA
19152,PHILADELPHIA,PHILADELPHIA
19153,PHILADELPHIA,PHILADELPHIA
19138,PHILADELPHIA,PHILADELPHIA
19139,PHILADELPHIA,PHILADELPHIA
19142,PHILADELPHIA,PHILADELPHIA
19143,PHILADELPHIA,PHILADELPHIA
19148,PHILADELPHIA,PHILADELPHIA
19151,PHILADELPHIA,PHILADELPHIA
19154,PHILADELPHIA,PHILADELPHIA
19161,PHILADELPHIA,PHILADELPHIA
19162,PHILADELPHIA,PHILADELPHIA
19170,PHILADELPHIA,PHILADELPHIA
19172,PHILADELPHIA,PHILADELPHIA
19173,PHILADELPHIA,PHILADELPHIA
19155,PHILADELPHIA,PHILADELPHIA
19160,PHILADELPHIA,PHILADELPHIA
19171,PHILADELPHIA,PHILADELPHIA
19175,PHILADELPHIA,PHILADELPHIA
19178,PHILADELPHIA,PHILADELPHIA
19182,PHILADELPHIA,PHILADELPHIA
19184,PHILADELPHIA,PHILADELPHIA
19185,PHILADELPHIA,PHILADELPHIA
19188,PHILADELPHIA,PHILADELPHIA
19190,PHILADELPHIA,PHILADELPHIA
19192,PHILADELPHIA,PHILADELPHIA
19176,PHILADELPHIA,PHILADELPHIA
19177,PHILADELPHIA,PHILADELPHIA
19179,PHILADELPHIA,PHILADELPHIA
19181,PHILADELPHIA,PHILADELPHIA
19183,PHILADELPHIA,PHILADELPHIA
19187,PHILADELPHIA,PHILADELPHIA
19191,PHILADELPHIA,PHILADELPHIA
19193,PHILADELPHIA,PHILADELPHIA
19194,PHILADELPHIA,PHILADELPHIA
19196,PHILADELPHIA,PHILADELPHIA
19197,PHILADELPHIA,PHILADELPHIA
19301,PAOLI,CHESTER
19310,ATGLEN,CHESTER
19195,PHILADELPHIA,PHILADELPHIA
19244,PHILADELPHIA,PHILADELPHIA
19255,PHILADELPHIA,PHILADELPHIA
19311,AVONDALE,CHESTER
19312,BERWYN,CHESTER
19316,BRANDAMORE,CHESTER
19320,COATESVILLE,CHESTER
19330,COCHRANVILLE,CHESTER
19331,CONCORDVILLE,DELAWARE
19333,DEVON,CHESTER
19335,DOWNINGTOWN,CHESTER
19340,CONCORDVILLE,DELAWARE
19341,EXTON,CHESTER
19344,HONEY BROOK,CHESTER
19345,IMMACULATA,CHESTER
19350,LANDENBERG,CHESTER
19351,LEWISVILLE,CHESTER
19352,LINCOLN UNIVERSITY,CHESTER
19317,CHADDS FORD,DELAWARE
19318,CHATHAM,CHESTER
19319,CHEYNEY,DELAWARE
19339,CONCORDVILLE,DELAWARE
19342,GLEN MILLS,DELAWARE
19343,GLENMOORE,CHESTER
19346,KELTON,CHESTER
19347,KEMBLESVILLE,CHESTER
19348,KENNETT SQUARE,CHESTER
19357,MENDENHALL,CHESTER
19358,MODENA,CHESTER
19360,NEW LONDON,CHESTER
19362,NOTTINGHAM,CHESTER
19369,SADSBURYVILLE,CHESTER
19371,SUPLEE,CHESTER
19372,THORNDALE,CHESTER
19353,LIONVILLE,CHESTER
19354,LYNDELL,CHESTER
19355,MALVERN,CHESTER
19363,OXFORD,CHESTER
19365,PARKESBURG,CHESTER
19366,POCOPSON,CHESTER
19367,POMEROY,CHESTER
19373,THORNTON,DELAWARE
19374,TOUGHKENAMON,CHESTER
19375,UNIONVILLE,CHESTER
19376,WAGONTOWN,CHESTER
19381,WEST CHESTER,CHESTER
19382,WEST CHESTER,CHESTER
19383,WEST CHESTER,CHESTER
19397,SOUTHEASTERN,CHESTER
19398,SOUTHEASTERN,CHESTER
19399,SOUTHEASTERN,CHESTER
19401,NORRISTOWN,MONTGOMERY
19405,BRIDGEPORT,MONTGOMERY
19406,KING OF PRUSSIA,MONTGOMERY
19409,FAIRVIEW VILLAGE,MONTGOMERY
19415,EAGLEVILLE,MONTGOMERY
19380,WEST CHESTER,CHESTER
19390,WEST GROVE,CHESTER
19395,WESTTOWN,CHESTER
19403,NORRISTOWN,MONTGOMERY
19404,NORRISTOWN,MONTGOMERY
19407,AUDUBON,MONTGOMERY
19408,EAGLEVILLE,MONTGOMERY
19420,ARCOLA,MONTGOMERY
19421,BIRCHRUNVILLE,CHESTER
19422,BLUE BELL,MONTGOMERY
19424,BLUE BELL,MONTGOMERY
19425,CHESTER SPRINGS,CHESTER
19429,CONSHOHOCKEN,MONTGOMERY
19423,CEDARS,MONTGOMERY
19426,COLLEGEVILLE,MONTGOMERY
19428,CONSHOHOCKEN,MONTGOMERY
19430,CREAMERY,MONTGOMERY
19432,DEVAULT,CHESTER
19435,FREDERICK,MONTGOMERY
19438,HARLEYSVILLE,MONTGOMERY
19440,HATFIELD,MONTGOMERY
19444,LAFAYETTE HILL,MONTGOMERY
19446,LANSDALE,MONTGOMERY
19453,MONT CLARE,MONTGOMERY
19454,NORTH WALES,MONTGOMERY
19457,PARKER FORD,CHESTER
19460,PHOENIXVILLE,CHESTER
19462,PLYMOUTH MEETING,MONTGOMERY
19465,POTTSTOWN,CHESTER
19468,ROYERSFORD,MONTGOMERY
19436,GWYNEDD,MONTGOMERY
19437,GWYNEDD VALLEY,MONTGOMERY
19441,HARLEYSVILLE,MONTGOMERY
19442,KIMBERTON,CHESTER
19443,KULPSVILLE,MONTGOMERY
19450,LEDERACH,MONTGOMERY
19451,MAINLAND,MONTGOMERY
19455,NORTH WALES,MONTGOMERY
19456,OAKS,MONTGOMERY
19464,POTTSTOWN,MONTGOMERY
19470,SAINT PETERS,CHESTER
19472,SASSAMANSVILLE,MONTGOMERY
19474,SKIPPACK,MONTGOMERY
19475,SPRING CITY,CHESTER
19480,UWCHLAND,CHESTER
19481,VALLEY FORGE,CHESTER
19482,VALLEY FORGE,CHESTER
19473,SCHWENKSVILLE,MONTGOMERY
19477,SPRING HOUSE,MONTGOMERY
19478,SPRING MOUNT,MONTGOMERY
19484,VALLEY FORGE,MONTGOMERY
19486,WEST POINT,MONTGOMERY
19490,WORCESTER,MONTGOMERY
19494,VALLEY FORGE,CHESTER
19495,VALLEY FORGE,CHESTER
19504,BARTO,BERKS
19505,BECHTELSVILLE,BERKS
19511,BOWERS,BERKS
19512,BOYERTOWN,BERKS
19492,ZIEGLERVILLE,MONTGOMERY
19493,VALLEY FORGE,CHESTER
19496,VALLEY FORGE,CHESTER
19501,ADAMSTOWN,LANCASTER
19503,BALLY,BERKS
19506,BERNVILLE,BERKS
19507,BETHEL,BERKS
19508,BIRDSBORO,BERKS
19510,BLANDON,BERKS
19518,DOUGLASSVILLE,BERKS
19520,ELVERSON,CHESTER
19522,FLEETWOOD,BERKS
19516,CENTERPORT,BERKS
19519,EARLVILLE,BERKS
19523,GEIGERTOWN,BERKS
19534,LENHARTSVILLE,BERKS
19535,LIMEKILN,BERKS
19536,LYON STATION,BERKS
19538,MAXATAWNY,BERKS
19525,GILBERTSVILLE,MONTGOMERY
19526,HAMBURG,BERKS
19529,KEMPTON,BERKS
19530,KUTZTOWN,BERKS
19533,LEESPORT,BERKS
19540,MOHNTON,BERKS
19544,MOUNT AETNA,BERKS
19545,NEW BERLINVILLE,BERKS
19547,OLEY,BERKS
19548,PINE FORGE,BERKS
19549,PORT CLINTON,SCHUYLKILL
19550,REHRERSBURG,BERKS
19539,MERTZTOWN,BERKS
19541,MOHRSVILLE,BERKS
19542,MONOCACY STATION,BERKS
19543,MORGANTOWN,BERKS
19551,ROBESONIA,BERKS
19554,SHARTLESVILLE,BERKS
19555,SHOEMAKERSVILLE,BERKS
19562,TOPTON,BERKS
19564,VIRGINVILLE,BERKS
19565,WERNERSVILLE,BERKS
19602,READING,BERKS
19603,READING,BERKS
19604,READING,BERKS
19559,STRAUSSTOWN,BERKS
19560,TEMPLE,BERKS
19567,WOMELSDORF,BERKS
19601,READING,BERKS
19605,READING,BERKS
19606,READING,BERKS
19607,READING,BERKS
19610,READING,BERKS
19608,READING,BERKS
19609,READING,BERKS
19611,READING,BERKS
19612,READING,BERKS
